{"type":"FeatureCollection","features":[{"type":"Feature","geometry":{"type":"Point","coordinates":[150.79320000000007,-34.21129999912227]},"properties":{"id":"ga:mine0:521","layer":"coal_mines","name":"Appin","subtype":"coal mine","status":"operating mine","country":"AU","state":"NSW","source":"Geoscience Australia (Australian Operating Mines)","source_url":"https://services.ga.gov.au/gis/rest/services/AustralianOperatingMines/MapServer","license":"CC BY 4.0","watch_status":"emitting","detections":16,"emit_overpasses":23,"last_detection":"2026-04-28","max_rate_kg_hr":2792,"reported_methane_tco2e":2245885,"reported_avg_kg_hr":9156,"operator":"ENDEAVOUR COAL PTY LIMITED","cer_name":"APN01 Appin Colliery - ICH Facility","reporting_period":"2024-07-01..2025-06-30","detections_in_period":4,"peak_in_period_kg_hr":1772}},{"type":"Feature","geometry":{"type":"Point","coordinates":[148.55554580000012,-22.928499999322263]},"properties":{"id":"ga:mine0:522","layer":"coal_mines","name":"Aquila-Capcoal","subtype":"coal mine","status":"operating mine","country":"AU","state":"QLD","source":"Geoscience Australia (Australian Operating Mines)","source_url":"https://services.ga.gov.au/gis/rest/services/AustralianOperatingMines/MapServer","license":"CC BY 4.0","watch_status":"emitting","detections":34,"emit_overpasses":23,"last_detection":"2026-04-30","max_rate_kg_hr":20000,"reported_methane_tco2e":818697,"reported_avg_kg_hr":3338,"operator":"ANGLO COAL (CAPCOAL MANAGEMENT) PTY LIMITED","cer_name":"Capcoal Mine","reporting_period":"2024-07-01..2025-06-30","detections_in_period":13,"peak_in_period_kg_hr":20000}},{"type":"Feature","geometry":{"type":"Point","coordinates":[150.01440000000002,-33.11199999913621]},"properties":{"id":"ga:mine0:534","layer":"coal_mines","name":"Airly","subtype":"coal mine","status":"operating mine","country":"AU","state":"NSW","source":"Geoscience Australia (Australian Operating Mines)","source_url":"https://services.ga.gov.au/gis/rest/services/AustralianOperatingMines/MapServer","license":"CC BY 4.0","watch_status":"watched, no plume","detections":0,"emit_overpasses":31}},{"type":"Feature","geometry":{"type":"Point","coordinates":[150.49410000000012,-24.19939999929385]},"properties":{"id":"ga:mine0:541","layer":"coal_mines","name":"Boundary Hill","subtype":"coal mine","status":"operating mine","country":"AU","state":"QLD","source":"Geoscience Australia (Australian Operating Mines)","source_url":"https://services.ga.gov.au/gis/rest/services/AustralianOperatingMines/MapServer","license":"CC BY 4.0","watch_status":"watched, no plume","detections":0,"emit_overpasses":13}},{"type":"Feature","geometry":{"type":"Point","coordinates":[148.1643553,-21.899999999346345]},"properties":{"id":"ga:mine0:543","layer":"coal_mines","name":"Broadlea","subtype":"coal mine","status":"operating mine","country":"AU","state":"QLD","source":"Geoscience Australia (Australian Operating Mines)","source_url":"https://services.ga.gov.au/gis/rest/services/AustralianOperatingMines/MapServer","license":"CC BY 4.0","watch_status":"emitting","detections":1,"emit_overpasses":25,"last_detection":"2024-06-20","max_rate_kg_hr":28000}},{"type":"Feature","geometry":{"type":"Point","coordinates":[148.15836920000004,-21.821399999348216]},"properties":{"id":"ga:mine0:545","layer":"coal_mines","name":"Broadmedow","subtype":"coal mine","status":"operating mine","country":"AU","state":"QLD","source":"Geoscience Australia (Australian Operating Mines)","source_url":"https://services.ga.gov.au/gis/rest/services/AustralianOperatingMines/MapServer","license":"CC BY 4.0","watch_status":"watched, no plume","detections":0,"emit_overpasses":24}},{"type":"Feature","geometry":{"type":"Point","coordinates":[151.10998400000005,-32.6868399991419]},"properties":{"id":"ga:mine0:551","layer":"coal_mines","name":"Bulga","subtype":"coal mine","status":"operating mine","country":"AU","state":"NSW","source":"Geoscience Australia (Australian Operating Mines)","source_url":"https://services.ga.gov.au/gis/rest/services/AustralianOperatingMines/MapServer","license":"CC BY 4.0","watch_status":"emitting","detections":15,"emit_overpasses":27,"last_detection":"2026-07-20","max_rate_kg_hr":70540,"reported_methane_tco2e":292656,"reported_avg_kg_hr":1193,"operator":"BULGA COAL MANAGEMENT PTY LIMITED","cer_name":"Bulga Coal Complex","reporting_period":"2024-07-01..2025-06-30","detections_in_period":3,"peak_in_period_kg_hr":2618}},{"type":"Feature","geometry":{"type":"Point","coordinates":[148.1726000000001,-21.588599999353722]},"properties":{"id":"ga:mine0:554","layer":"coal_mines","name":"Burton Complex","subtype":"coal mine","status":"operating mine","country":"AU","state":"QLD","source":"Geoscience Australia (Australian Operating Mines)","source_url":"https://services.ga.gov.au/gis/rest/services/AustralianOperatingMines/MapServer","license":"CC BY 4.0","watch_status":"watched, no plume","detections":0,"emit_overpasses":23,"reported_methane_tco2e":90883,"reported_avg_kg_hr":371,"operator":"BOWEN COKING COAL LIMITED","cer_name":"Burton Complex","reporting_period":"2024-07-01..2025-06-30","detections_in_period":0}},{"type":"Feature","geometry":{"type":"Point","coordinates":[147.81000000000006,-21.349999999359518]},"properties":{"id":"ga:mine0:557","layer":"coal_mines","name":"Byerwen","subtype":"coal mine","status":"operating mine","country":"AU","state":"QLD","source":"Geoscience Australia (Australian Operating Mines)","source_url":"https://services.ga.gov.au/gis/rest/services/AustralianOperatingMines/MapServer","license":"CC BY 4.0","watch_status":"watched, no plume","detections":0,"emit_overpasses":22,"reported_methane_tco2e":155739,"reported_avg_kg_hr":635,"operator":"BYERWEN COAL PTY LTD","cer_name":"Byerwen Mine","reporting_period":"2024-07-01..2025-06-30","detections_in_period":0}},{"type":"Feature","geometry":{"type":"Point","coordinates":[150.6221730000001,-24.310920999291397]},"properties":{"id":"ga:mine0:561","layer":"coal_mines","name":"Callide","subtype":"coal mine","status":"operating mine","country":"AU","state":"QLD","source":"Geoscience Australia (Australian Operating Mines)","source_url":"https://services.ga.gov.au/gis/rest/services/AustralianOperatingMines/MapServer","license":"CC BY 4.0","watch_status":"watched, no plume","detections":0,"emit_overpasses":16}},{"type":"Feature","geometry":{"type":"Point","coordinates":[150.35709240000006,-26.62479999924342]},"properties":{"id":"ga:mine0:562","layer":"coal_mines","name":"Cameby Downs","subtype":"coal mine","status":"operating mine","country":"AU","state":"QLD","source":"Geoscience Australia (Australian Operating Mines)","source_url":"https://services.ga.gov.au/gis/rest/services/AustralianOperatingMines/MapServer","license":"CC BY 4.0","watch_status":"watched, no plume","detections":0,"emit_overpasses":12}},{"type":"Feature","geometry":{"type":"Point","coordinates":[148.20940000000007,-21.950199999345102]},"properties":{"id":"ga:mine0:568","layer":"coal_mines","name":"Carborough Downs","subtype":"coal mine","status":"operating mine","country":"AU","state":"QLD","source":"Geoscience Australia (Australian Operating Mines)","source_url":"https://services.ga.gov.au/gis/rest/services/AustralianOperatingMines/MapServer","license":"CC BY 4.0","watch_status":"emitting","detections":12,"emit_overpasses":30,"last_detection":"2026-05-18","max_rate_kg_hr":52940,"reported_methane_tco2e":654259,"reported_avg_kg_hr":2667,"operator":"FITZROY (CQ) PTY LTD","cer_name":"Carborough Downs Coal Mine","reporting_period":"2024-07-01..2025-06-30","detections_in_period":7,"peak_in_period_kg_hr":9000}},{"type":"Feature","geometry":{"type":"Point","coordinates":[146.3694763000001,-22.036899999343063]},"properties":{"id":"ga:mine0:570","layer":"coal_mines","name":"Carmichael","subtype":"coal mine","status":"operating mine","country":"AU","state":"QLD","source":"Geoscience Australia (Australian Operating Mines)","source_url":"https://services.ga.gov.au/gis/rest/services/AustralianOperatingMines/MapServer","license":"CC BY 4.0","watch_status":"watched, no plume","detections":0,"emit_overpasses":22,"reported_methane_tco2e":461681,"reported_avg_kg_hr":1882,"operator":"Adani Mining Pty Ltd","cer_name":"Carmichael Coal Mine","reporting_period":"2024-07-01..2025-06-30","detections_in_period":0}},{"type":"Feature","geometry":{"type":"Point","coordinates":[148.17199000000005,-22.221465999338726]},"properties":{"id":"ga:mine0:577","layer":"coal_mines","name":"Caval Ridge","subtype":"coal mine","status":"operating mine","country":"AU","state":"QLD","source":"Geoscience Australia (Australian Operating Mines)","source_url":"https://services.ga.gov.au/gis/rest/services/AustralianOperatingMines/MapServer","license":"CC BY 4.0","watch_status":"watched, no plume","detections":0,"emit_overpasses":30,"reported_methane_tco2e":3969,"reported_avg_kg_hr":16,"operator":"BM Alliance Coal Operations Pty Limited","cer_name":"Caval Ridge Mine","reporting_period":"2024-07-01..2025-06-30","detections_in_period":0}},{"type":"Feature","geometry":{"type":"Point","coordinates":[147.97661500000004,-21.647549999352353]},"properties":{"id":"ga:mine0:579","layer":"coal_mines","name":"Centurion","subtype":"coal mine","status":"operating mine","country":"AU","state":"QLD","source":"Geoscience Australia (Australian Operating Mines)","source_url":"https://services.ga.gov.au/gis/rest/services/AustralianOperatingMines/MapServer","license":"CC BY 4.0","watch_status":"emitting","detections":17,"emit_overpasses":21,"last_detection":"2026-05-27","max_rate_kg_hr":33000,"reported_methane_tco2e":448722,"reported_avg_kg_hr":1829,"operator":"Centurion Coal Mining Pty Ltd","cer_name":"Centurion Coal Mine","reporting_period":"2024-07-01..2025-06-30","detections_in_period":6,"peak_in_period_kg_hr":1607}},{"type":"Feature","geometry":{"type":"Point","coordinates":[151.55000400000006,-33.16305599913553]},"properties":{"id":"ga:mine0:581","layer":"coal_mines","name":"Chain Valley","subtype":"coal mine","status":"operating mine","country":"AU","state":"NSW","source":"Geoscience Australia (Australian Operating Mines)","source_url":"https://services.ga.gov.au/gis/rest/services/AustralianOperatingMines/MapServer","license":"CC BY 4.0","watch_status":"emitting","detections":17,"emit_overpasses":37,"last_detection":"2026-06-13","max_rate_kg_hr":6865,"reported_methane_tco2e":35854,"reported_avg_kg_hr":146,"operator":"Hunter Valley Energy Coal Pty Ltd","cer_name":"HVY01 Hunter Valley Energy Coal - CCL Facility","reporting_period":"2024-07-01..2025-06-30","detections_in_period":8,"peak_in_period_kg_hr":6865}},{"type":"Feature","geometry":{"type":"Point","coordinates":[150.24670000000003,-33.46369999913162]},"properties":{"id":"ga:mine0:587","layer":"coal_mines","name":"Clarence","subtype":"coal mine","status":"operating mine","country":"AU","state":"NSW","source":"Geoscience Australia (Australian Operating Mines)","source_url":"https://services.ga.gov.au/gis/rest/services/AustralianOperatingMines/MapServer","license":"CC BY 4.0","watch_status":"watched, no plume","detections":0,"emit_overpasses":34}},{"type":"Feature","geometry":{"type":"Point","coordinates":[147.63834110000005,-22.72569999932697]},"properties":{"id":"ga:mine0:588","layer":"coal_mines","name":"Clermont","subtype":"coal mine","status":"operating mine","country":"AU","state":"QLD","source":"Geoscience Australia (Australian Operating Mines)","source_url":"https://services.ga.gov.au/gis/rest/services/AustralianOperatingMines/MapServer","license":"CC BY 4.0","watch_status":"watched, no plume","detections":0,"emit_overpasses":26,"reported_methane_tco2e":202,"reported_avg_kg_hr":1,"operator":"Clermont Coal Operations Pty Limited","cer_name":"Clermont Coal Operations","reporting_period":"2024-07-01..2025-06-30","detections_in_period":0}},{"type":"Feature","geometry":{"type":"Point","coordinates":[116.25000000000014,-33.36239999913294]},"properties":{"id":"ga:mine0:595","layer":"coal_mines","name":"Collie-Ewington","subtype":"coal mine","status":"operating mine","country":"AU","state":"WA","source":"Geoscience Australia (Australian Operating Mines)","source_url":"https://services.ga.gov.au/gis/rest/services/AustralianOperatingMines/MapServer","license":"CC BY 4.0","watch_status":"watched, no plume","detections":0,"emit_overpasses":30}},{"type":"Feature","geometry":{"type":"Point","coordinates":[147.7848765000001,-20.539399999379377]},"properties":{"id":"ga:mine0:596","layer":"coal_mines","name":"Collinsville","subtype":"coal mine","status":"operating mine","country":"AU","state":"QLD","source":"Geoscience Australia (Australian Operating Mines)","source_url":"https://services.ga.gov.au/gis/rest/services/AustralianOperatingMines/MapServer","license":"CC BY 4.0","watch_status":"watched, no plume","detections":0,"emit_overpasses":24}},{"type":"Feature","geometry":{"type":"Point","coordinates":[151.2790510000001,-27.93026899921853]},"properties":{"id":"ga:mine0:599","layer":"coal_mines","name":"Commodore","subtype":"coal mine","status":"operating mine","country":"AU","state":"QLD","source":"Geoscience Australia (Australian Operating Mines)","source_url":"https://services.ga.gov.au/gis/rest/services/AustralianOperatingMines/MapServer","license":"CC BY 4.0","watch_status":"watched, no plume","detections":0,"emit_overpasses":25}},{"type":"Feature","geometry":{"type":"Point","coordinates":[148.42718700000012,-21.84455399934764]},"properties":{"id":"ga:mine0:603","layer":"coal_mines","name":"Coppabella","subtype":"coal mine","status":"operating mine","country":"AU","state":"QLD","source":"Geoscience Australia (Australian Operating Mines)","source_url":"https://services.ga.gov.au/gis/rest/services/AustralianOperatingMines/MapServer","license":"CC BY 4.0","watch_status":"emitting","detections":7,"emit_overpasses":27,"last_detection":"2026-05-30","max_rate_kg_hr":23000,"reported_methane_tco2e":88315,"reported_avg_kg_hr":360,"operator":"PEABODY ENERGY AUSTRALIA PCI (C&M MANAGEMENT) PTY LTD","cer_name":"Coppabella Coal Mine","reporting_period":"2024-07-01..2025-06-30","detections_in_period":4,"peak_in_period_kg_hr":19000}},{"type":"Feature","geometry":{"type":"Point","coordinates":[147.9620450000001,-21.792320999348878]},"properties":{"id":"ga:mine0:608","layer":"coal_mines","name":"Goonyella","subtype":"coal mine","status":"operating mine","country":"AU","state":"QLD","source":"Geoscience Australia (Australian Operating Mines)","source_url":"https://services.ga.gov.au/gis/rest/services/AustralianOperatingMines/MapServer","license":"CC BY 4.0","watch_status":"emitting","detections":2,"emit_overpasses":23,"last_detection":"2026-07-05","max_rate_kg_hr":1219,"reported_methane_tco2e":870506,"reported_avg_kg_hr":3549,"operator":"BM Alliance Coal Operations Pty Limited","cer_name":"Goonyella Broadmeadow Mine","reporting_period":"2024-07-01..2025-06-30","detections_in_period":1,"peak_in_period_kg_hr":1219}},{"type":"Feature","geometry":{"type":"Point","coordinates":[148.35634800000003,-23.17224599931675]},"properties":{"id":"ga:mine0:616","layer":"coal_mines","name":"Gregory Crinum","subtype":"coal mine","status":"operating mine","country":"AU","state":"QLD","source":"Geoscience Australia (Australian Operating Mines)","source_url":"https://services.ga.gov.au/gis/rest/services/AustralianOperatingMines/MapServer","license":"CC BY 4.0","watch_status":"watched, no plume","detections":0,"emit_overpasses":17}},{"type":"Feature","geometry":{"type":"Point","coordinates":[148.40680500000008,-21.505382999355728]},"properties":{"id":"ga:mine0:622","layer":"coal_mines","name":"Hail Creek","subtype":"coal mine","status":"operating mine","country":"AU","state":"QLD","source":"Geoscience Australia (Australian Operating Mines)","source_url":"https://services.ga.gov.au/gis/rest/services/AustralianOperatingMines/MapServer","license":"CC BY 4.0","watch_status":"emitting","detections":7,"emit_overpasses":32,"last_detection":"2025-11-18","max_rate_kg_hr":21000,"reported_methane_tco2e":660358,"reported_avg_kg_hr":2692,"operator":"HAIL CREEK COAL PTY LTD","cer_name":"Hail Creek Mine","reporting_period":"2024-07-01..2025-06-30","detections_in_period":3,"peak_in_period_kg_hr":14000}},{"type":"Feature","geometry":{"type":"Point","coordinates":[148.1599172000001,-21.736699999350186]},"properties":{"id":"ga:mine0:628","layer":"coal_mines","name":"Ironbark No 1","subtype":"coal mine","status":"operating mine","country":"AU","state":"QLD","source":"Geoscience Australia (Australian Operating Mines)","source_url":"https://services.ga.gov.au/gis/rest/services/AustralianOperatingMines/MapServer","license":"CC BY 4.0","watch_status":"emitting","detections":2,"emit_overpasses":26,"last_detection":"2026-05-27","max_rate_kg_hr":1316}},{"type":"Feature","geometry":{"type":"Point","coordinates":[148.1088000000001,-21.956499999344963]},"properties":{"id":"ga:mine0:629","layer":"coal_mines","name":"Isaac Plains Complex","subtype":"coal mine","status":"operating mine","country":"AU","state":"QLD","source":"Geoscience Australia (Australian Operating Mines)","source_url":"https://services.ga.gov.au/gis/rest/services/AustralianOperatingMines/MapServer","license":"CC BY 4.0","watch_status":"emitting","detections":1,"emit_overpasses":30,"last_detection":"2026-04-09","max_rate_kg_hr":972,"reported_methane_tco2e":109622,"reported_avg_kg_hr":447,"operator":"STANMORE RESOURCES LIMITED","cer_name":"Isaac Plains Complex","reporting_period":"2024-07-01..2025-06-30","detections_in_period":0}},{"type":"Feature","geometry":{"type":"Point","coordinates":[147.86699340000007,-20.7047999993753]},"properties":{"id":"ga:mine0:634","layer":"coal_mines","name":"Jax","subtype":"coal mine","status":"operating mine","country":"AU","state":"QLD","source":"Geoscience Australia (Australian Operating Mines)","source_url":"https://services.ga.gov.au/gis/rest/services/AustralianOperatingMines/MapServer","license":"CC BY 4.0","watch_status":"watched, no plume","detections":0,"emit_overpasses":23,"reported_methane_tco2e":67497,"reported_avg_kg_hr":275,"operator":"Jax Coal Pty Ltd","cer_name":"Jax Mine","reporting_period":"2024-07-01..2025-06-30","detections_in_period":0}},{"type":"Feature","geometry":{"type":"Point","coordinates":[148.950644,-23.406873999311426]},"properties":{"id":"ga:mine0:635","layer":"coal_mines","name":"Jellinbah East","subtype":"coal mine","status":"operating mine","country":"AU","state":"QLD","source":"Geoscience Australia (Australian Operating Mines)","source_url":"https://services.ga.gov.au/gis/rest/services/AustralianOperatingMines/MapServer","license":"CC BY 4.0","watch_status":"emitting","detections":1,"emit_overpasses":24,"last_detection":"2024-06-13","max_rate_kg_hr":11000,"reported_methane_tco2e":207143,"reported_avg_kg_hr":845,"operator":"JELLINBAH MINING PTY LTD","cer_name":"Jellinbah Mine","reporting_period":"2024-07-01..2025-06-30","detections_in_period":0}},{"type":"Feature","geometry":{"type":"Point","coordinates":[148.37030600000003,-23.241971999315165]},"properties":{"id":"ga:mine0:650","layer":"coal_mines","name":"Kestrel","subtype":"coal mine","status":"operating mine","country":"AU","state":"QLD","source":"Geoscience Australia (Australian Operating Mines)","source_url":"https://services.ga.gov.au/gis/rest/services/AustralianOperatingMines/MapServer","license":"CC BY 4.0","watch_status":"emitting","detections":23,"emit_overpasses":19,"last_detection":"2026-06-01","max_rate_kg_hr":4741,"reported_methane_tco2e":848423,"reported_avg_kg_hr":3459,"operator":"Kestrel Coal Group Pty Ltd","cer_name":"Kestrel Mine","reporting_period":"2024-07-01..2025-06-30","detections_in_period":11,"peak_in_period_kg_hr":4741}},{"type":"Feature","geometry":{"type":"Point","coordinates":[150.79064060000007,-26.938999999237303]},"properties":{"id":"ga:mine0:657","layer":"coal_mines","name":"Kogan Creek","subtype":"coal mine","status":"operating mine","country":"AU","state":"QLD","source":"Geoscience Australia (Australian Operating Mines)","source_url":"https://services.ga.gov.au/gis/rest/services/AustralianOperatingMines/MapServer","license":"CC BY 4.0","watch_status":"watched, no plume","detections":0,"emit_overpasses":14}},{"type":"Feature","geometry":{"type":"Point","coordinates":[148.42898450000007,-22.445699999333428]},"properties":{"id":"ga:mine0:665","layer":"coal_mines","name":"Lake Vermont","subtype":"coal mine","status":"operating mine","country":"AU","state":"QLD","source":"Geoscience Australia (Australian Operating Mines)","source_url":"https://services.ga.gov.au/gis/rest/services/AustralianOperatingMines/MapServer","license":"CC BY 4.0","watch_status":"emitting","detections":2,"emit_overpasses":28,"last_detection":"2025-10-01","max_rate_kg_hr":22000,"reported_methane_tco2e":94470,"reported_avg_kg_hr":385,"operator":"THIESS PTY LTD","cer_name":"Lake Vermont Mine","reporting_period":"2024-07-01..2025-06-30","detections_in_period":0}},{"type":"Feature","geometry":{"type":"Point","coordinates":[150.99880000000007,-32.525999999144126]},"properties":{"id":"ga:mine0:683","layer":"coal_mines","name":"Hunter Valley Operations","subtype":"coal mine","status":"operating mine","country":"AU","state":"NSW","source":"Geoscience Australia (Australian Operating Mines)","source_url":"https://services.ga.gov.au/gis/rest/services/AustralianOperatingMines/MapServer","license":"CC BY 4.0","watch_status":"emitting","detections":24,"emit_overpasses":22,"last_detection":"2026-06-06","max_rate_kg_hr":26000,"reported_methane_tco2e":302459,"reported_avg_kg_hr":1233,"operator":"HV OPERATIONS PTY LTD","cer_name":"Hunter Valley Operations mine","reporting_period":"2024-07-01..2025-06-30","detections_in_period":5,"peak_in_period_kg_hr":1764}},{"type":"Feature","geometry":{"type":"Point","coordinates":[150.03000300000008,-33.32685399913338]},"properties":{"id":"ga:mine0:685","layer":"coal_mines","name":"Invincible","subtype":"coal mine","status":"operating mine","country":"AU","state":"NSW","source":"Geoscience Australia (Australian Operating Mines)","source_url":"https://services.ga.gov.au/gis/rest/services/AustralianOperatingMines/MapServer","license":"CC BY 4.0","watch_status":"watched, no plume","detections":0,"emit_overpasses":29}},{"type":"Feature","geometry":{"type":"Point","coordinates":[148.13420000000008,-41.61449999906311]},"properties":{"id":"ga:mine0:697","layer":"coal_mines","name":"Cullenswood","subtype":"coal mine","status":"operating mine","country":"AU","state":"TAS","source":"Geoscience Australia (Australian Operating Mines)","source_url":"https://services.ga.gov.au/gis/rest/services/AustralianOperatingMines/MapServer","license":"CC BY 4.0","watch_status":"watched, no plume","detections":0,"emit_overpasses":10}},{"type":"Feature","geometry":{"type":"Point","coordinates":[148.85414400000002,-23.466217999310093]},"properties":{"id":"ga:mine0:698","layer":"coal_mines","name":"Curragh","subtype":"coal mine","status":"operating mine","country":"AU","state":"QLD","source":"Geoscience Australia (Australian Operating Mines)","source_url":"https://services.ga.gov.au/gis/rest/services/AustralianOperatingMines/MapServer","license":"CC BY 4.0","watch_status":"watched, no plume","detections":0,"emit_overpasses":22,"reported_methane_tco2e":758208,"reported_avg_kg_hr":3091,"operator":"CORONADO AUSTRALIA HOLDINGS PTY LTD","cer_name":"Curragh Mine","reporting_period":"2024-07-01..2025-06-30","detections_in_period":0}},{"type":"Feature","geometry":{"type":"Point","coordinates":[148.2885460000001,-22.043992999342887]},"properties":{"id":"ga:mine0:704","layer":"coal_mines","name":"Daunia","subtype":"coal mine","status":"operating mine","country":"AU","state":"QLD","source":"Geoscience Australia (Australian Operating Mines)","source_url":"https://services.ga.gov.au/gis/rest/services/AustralianOperatingMines/MapServer","license":"CC BY 4.0","watch_status":"watched, no plume","detections":0,"emit_overpasses":27,"reported_methane_tco2e":40963,"reported_avg_kg_hr":167,"operator":"WHITEHAVEN DAUNIA PTY LTD","cer_name":"Daunia Coal Mine","reporting_period":"2024-07-01..2025-06-30","detections_in_period":0}},{"type":"Feature","geometry":{"type":"Point","coordinates":[150.05923800000005,-24.616825999284778]},"properties":{"id":"ga:mine0:705","layer":"coal_mines","name":"Dawson","subtype":"coal mine","status":"operating mine","country":"AU","state":"QLD","source":"Geoscience Australia (Australian Operating Mines)","source_url":"https://services.ga.gov.au/gis/rest/services/AustralianOperatingMines/MapServer","license":"CC BY 4.0","watch_status":"emitting","detections":8,"emit_overpasses":10,"last_detection":"2026-07-28","max_rate_kg_hr":10000,"reported_methane_tco2e":289896,"reported_avg_kg_hr":1182,"operator":"ANGLO COAL (DAWSON MANAGEMENT) PTY LTD","cer_name":"Dawson Mine","reporting_period":"2024-07-01..2025-06-30","detections_in_period":1,"peak_in_period_kg_hr":2828}},{"type":"Feature","geometry":{"type":"Point","coordinates":[148.1333330000001,-41.54999999906336]},"properties":{"id":"ga:mine0:708","layer":"coal_mines","name":"Cornwall","subtype":"coal mine","status":"operating mine","country":"AU","state":"TAS","source":"Geoscience Australia (Australian Operating Mines)","source_url":"https://services.ga.gov.au/gis/rest/services/AustralianOperatingMines/MapServer","license":"CC BY 4.0","watch_status":"watched, no plume","detections":0,"emit_overpasses":11}},{"type":"Feature","geometry":{"type":"Point","coordinates":[150.80910000000006,-34.43209999911963]},"properties":{"id":"ga:mine0:709","layer":"coal_mines","name":"Dendrobium","subtype":"coal mine","status":"operating mine","country":"AU","state":"NSW","source":"Geoscience Australia (Australian Operating Mines)","source_url":"https://services.ga.gov.au/gis/rest/services/AustralianOperatingMines/MapServer","license":"CC BY 4.0","watch_status":"emitting","detections":5,"emit_overpasses":19,"last_detection":"2026-04-02","max_rate_kg_hr":1821}},{"type":"Feature","geometry":{"type":"Point","coordinates":[147.81600000000003,-20.707999999375215]},"properties":{"id":"ga:mine0:715","layer":"coal_mines","name":"Drake","subtype":"coal mine","status":"operating mine","country":"AU","state":"QLD","source":"Geoscience Australia (Australian Operating Mines)","source_url":"https://services.ga.gov.au/gis/rest/services/AustralianOperatingMines/MapServer","license":"CC BY 4.0","watch_status":"watched, no plume","detections":0,"emit_overpasses":29,"reported_methane_tco2e":152541,"reported_avg_kg_hr":622,"operator":"Drake Mine Management Pty Ltd","cer_name":"Drake Mine","reporting_period":"2024-07-01..2025-06-30","detections_in_period":0}},{"type":"Feature","geometry":{"type":"Point","coordinates":[148.49745500000006,-23.454463999310374]},"properties":{"id":"ga:mine0:726","layer":"coal_mines","name":"Ensham","subtype":"coal mine","status":"operating mine","country":"AU","state":"QLD","source":"Geoscience Australia (Australian Operating Mines)","source_url":"https://services.ga.gov.au/gis/rest/services/AustralianOperatingMines/MapServer","license":"CC BY 4.0","watch_status":"emitting","detections":3,"emit_overpasses":16,"last_detection":"2025-09-24","max_rate_kg_hr":1260,"reported_methane_tco2e":229243,"reported_avg_kg_hr":935,"operator":"ENSHAM RESOURCES PTY. LIMITED","cer_name":"Ensham Coal Mine","reporting_period":"2024-07-01..2025-06-30","detections_in_period":0}},{"type":"Feature","geometry":{"type":"Point","coordinates":[148.75900000000001,-22.947466999321865]},"properties":{"id":"ga:mine0:739","layer":"coal_mines","name":"Foxleigh","subtype":"coal mine","status":"operating mine","country":"AU","state":"QLD","source":"Geoscience Australia (Australian Operating Mines)","source_url":"https://services.ga.gov.au/gis/rest/services/AustralianOperatingMines/MapServer","license":"CC BY 4.0","watch_status":"emitting","detections":3,"emit_overpasses":23,"last_detection":"2025-10-22","max_rate_kg_hr":9970,"reported_methane_tco2e":105878,"reported_avg_kg_hr":432,"operator":"FOXLEIGH MANAGEMENT PTY LTD","cer_name":"Foxleigh Mine","reporting_period":"2024-07-01..2025-06-30","detections_in_period":0}},{"type":"Feature","geometry":{"type":"Point","coordinates":[151.07755100000008,-32.45119199914514]},"properties":{"id":"ga:mine0:747","layer":"coal_mines","name":"Glendell","subtype":"coal mine","status":"operating mine","country":"AU","state":"NSW","source":"Geoscience Australia (Australian Operating Mines)","source_url":"https://services.ga.gov.au/gis/rest/services/AustralianOperatingMines/MapServer","license":"CC BY 4.0","watch_status":"emitting","detections":2,"emit_overpasses":21,"last_detection":"2025-12-19","max_rate_kg_hr":683,"reported_methane_tco2e":39668,"reported_avg_kg_hr":162,"operator":"MT OWEN PTY LIMITED","cer_name":"Mt Owen Glendell Complex","reporting_period":"2024-07-01..2025-06-30","detections_in_period":1,"peak_in_period_kg_hr":531}},{"type":"Feature","geometry":{"type":"Point","coordinates":[151.07900000000006,-32.466699999144936]},"properties":{"id":"ga:mine0:751","layer":"coal_mines","name":"Ashton","subtype":"coal mine","status":"operating mine","country":"AU","state":"NSW","source":"Geoscience Australia (Australian Operating Mines)","source_url":"https://services.ga.gov.au/gis/rest/services/AustralianOperatingMines/MapServer","license":"CC BY 4.0","watch_status":"emitting","detections":37,"emit_overpasses":23,"last_detection":"2026-06-06","max_rate_kg_hr":4211,"reported_methane_tco2e":667189,"reported_avg_kg_hr":2720,"operator":"ASHTON COAL OPERATIONS PTY LIMITED","cer_name":"Ashton Coal Mine (Underground)","reporting_period":"2024-07-01..2025-06-30","detections_in_period":9,"peak_in_period_kg_hr":2116}},{"type":"Feature","geometry":{"type":"Point","coordinates":[149.80323800000008,-24.16485599929457]},"properties":{"id":"ga:mine0:765","layer":"coal_mines","name":"Baralaba North","subtype":"coal mine","status":"operating mine","country":"AU","state":"QLD","source":"Geoscience Australia (Australian Operating Mines)","source_url":"https://services.ga.gov.au/gis/rest/services/AustralianOperatingMines/MapServer","license":"CC BY 4.0","watch_status":"under-observed","detections":0,"emit_overpasses":9,"reported_methane_tco2e":45367,"reported_avg_kg_hr":185,"operator":"BARALABA COAL COMPANY PTY LTD","cer_name":"Baralaba Coal Mine","reporting_period":"2024-07-01..2025-06-30","detections_in_period":0}},{"type":"Feature","geometry":{"type":"Point","coordinates":[150.8234000000001,-32.27159999914772]},"properties":{"id":"ga:mine0:773","layer":"coal_mines","name":"Bengalla","subtype":"coal mine","status":"operating mine","country":"AU","state":"NSW","source":"Geoscience Australia (Australian Operating Mines)","source_url":"https://services.ga.gov.au/gis/rest/services/AustralianOperatingMines/MapServer","license":"CC BY 4.0","watch_status":"emitting","detections":7,"emit_overpasses":18,"last_detection":"2026-06-06","max_rate_kg_hr":1155,"reported_methane_tco2e":488372,"reported_avg_kg_hr":1991,"operator":"Bengalla Mining Company Pty Limited","cer_name":"Bengalla Operations","reporting_period":"2024-07-01..2025-06-30","detections_in_period":2,"peak_in_period_kg_hr":332}},{"type":"Feature","geometry":{"type":"Point","coordinates":[148.80736100000001,-23.685584999305174]},"properties":{"id":"ga:mine0:780","layer":"coal_mines","name":"Blackwater","subtype":"coal mine","status":"operating mine","country":"AU","state":"QLD","source":"Geoscience Australia (Australian Operating Mines)","source_url":"https://services.ga.gov.au/gis/rest/services/AustralianOperatingMines/MapServer","license":"CC BY 4.0","watch_status":"watched, no plume","detections":0,"emit_overpasses":23,"reported_methane_tco2e":440321,"reported_avg_kg_hr":1795,"operator":"WHITEHAVEN BLACKWATER PTY LTD","cer_name":"Blackwater Coal Mine","reporting_period":"2024-07-01..2025-06-30","detections_in_period":0}},{"type":"Feature","geometry":{"type":"Point","coordinates":[147.52700000000004,-22.690499999327756]},"properties":{"id":"ga:mine0:782","layer":"coal_mines","name":"Blair Athol","subtype":"coal mine","status":"operating mine","country":"AU","state":"QLD","source":"Geoscience Australia (Australian Operating Mines)","source_url":"https://services.ga.gov.au/gis/rest/services/AustralianOperatingMines/MapServer","license":"CC BY 4.0","watch_status":"watched, no plume","detections":0,"emit_overpasses":33,"reported_methane_tco2e":62511,"reported_avg_kg_hr":255,"operator":"ORION MINING PTY LTD","cer_name":"Blair Athol Operations","reporting_period":"2024-07-01..2025-06-30","detections_in_period":0}},{"type":"Feature","geometry":{"type":"Point","coordinates":[151.56140000000005,-32.80729999914027]},"properties":{"id":"ga:mine0:783","layer":"coal_mines","name":"Bloomfield","subtype":"coal mine","status":"operating mine","country":"AU","state":"NSW","source":"Geoscience Australia (Australian Operating Mines)","source_url":"https://services.ga.gov.au/gis/rest/services/AustralianOperatingMines/MapServer","license":"CC BY 4.0","watch_status":"watched, no plume","detections":0,"emit_overpasses":32}},{"type":"Feature","geometry":{"type":"Point","coordinates":[150.16200000000003,-30.600099999172716]},"properties":{"id":"ga:mine0:789","layer":"coal_mines","name":"Boggabri","subtype":"coal mine","status":"operating mine","country":"AU","state":"NSW","source":"Geoscience Australia (Australian Operating Mines)","source_url":"https://services.ga.gov.au/gis/rest/services/AustralianOperatingMines/MapServer","license":"CC BY 4.0","watch_status":"watched, no plume","detections":0,"emit_overpasses":15,"reported_methane_tco2e":647,"reported_avg_kg_hr":3,"operator":"BOGGABRI COAL PTY LIMITED","cer_name":"Boggabri Coal Minesite","reporting_period":"2024-07-01..2025-06-30","detections_in_period":0}},{"type":"Feature","geometry":{"type":"Point","coordinates":[148.36084820000008,-24.425099999288896]},"properties":{"id":"ga:mine0:792","layer":"coal_mines","name":"Orion Downs","subtype":"coal mine","status":"operating mine","country":"AU","state":"QLD","source":"Geoscience Australia (Australian Operating Mines)","source_url":"https://services.ga.gov.au/gis/rest/services/AustralianOperatingMines/MapServer","license":"CC BY 4.0","watch_status":"watched, no plume","detections":0,"emit_overpasses":30}},{"type":"Feature","geometry":{"type":"Point","coordinates":[148.17306600000006,-22.21991399933875]},"properties":{"id":"ga:mine0:804","layer":"coal_mines","name":"Peak Downs","subtype":"coal mine","status":"operating mine","country":"AU","state":"QLD","source":"Geoscience Australia (Australian Operating Mines)","source_url":"https://services.ga.gov.au/gis/rest/services/AustralianOperatingMines/MapServer","license":"CC BY 4.0","watch_status":"watched, no plume","detections":0,"emit_overpasses":30,"reported_methane_tco2e":16892,"reported_avg_kg_hr":69,"operator":"BM Alliance Coal Operations Pty Limited","cer_name":"Peak Downs Mine","reporting_period":"2024-07-01..2025-06-30","detections_in_period":0}},{"type":"Feature","geometry":{"type":"Point","coordinates":[149.8850000000001,-32.33199999914682]},"properties":{"id":"ga:mine0:822","layer":"coal_mines","name":"Wilpinjong","subtype":"coal mine","status":"operating mine","country":"AU","state":"NSW","source":"Geoscience Australia (Australian Operating Mines)","source_url":"https://services.ga.gov.au/gis/rest/services/AustralianOperatingMines/MapServer","license":"CC BY 4.0","watch_status":"watched, no plume","detections":0,"emit_overpasses":34,"reported_methane_tco2e":2589,"reported_avg_kg_hr":11,"operator":"WILPINJONG COAL PTY LTD","cer_name":"Wilpinjong Coal Mine","reporting_period":"2024-07-01..2025-06-30","detections_in_period":0}},{"type":"Feature","geometry":{"type":"Point","coordinates":[148.55100000000004,-23.322999999313335]},"properties":{"id":"ga:mine0:823","layer":"coal_mines","name":"Wilton-Fairhill","subtype":"coal mine","status":"operating mine","country":"AU","state":"QLD","source":"Geoscience Australia (Australian Operating Mines)","source_url":"https://services.ga.gov.au/gis/rest/services/AustralianOperatingMines/MapServer","license":"CC BY 4.0","watch_status":"watched, no plume","detections":0,"emit_overpasses":14}},{"type":"Feature","geometry":{"type":"Point","coordinates":[146.3832000000001,-38.18629999908292]},"properties":{"id":"ga:mine0:839","layer":"coal_mines","name":"Yallourn","subtype":"coal mine","status":"operating mine","country":"AU","state":"VIC","source":"Geoscience Australia (Australian Operating Mines)","source_url":"https://services.ga.gov.au/gis/rest/services/AustralianOperatingMines/MapServer","license":"CC BY 4.0","watch_status":"watched, no plume","detections":0,"emit_overpasses":27}},{"type":"Feature","geometry":{"type":"Point","coordinates":[149.02637100000004,-23.317677999313425]},"properties":{"id":"ga:mine0:844","layer":"coal_mines","name":"Yarrabee","subtype":"coal mine","status":"operating mine","country":"AU","state":"QLD","source":"Geoscience Australia (Australian Operating Mines)","source_url":"https://services.ga.gov.au/gis/rest/services/AustralianOperatingMines/MapServer","license":"CC BY 4.0","watch_status":"emitting","detections":2,"emit_overpasses":25,"last_detection":"2025-09-30","max_rate_kg_hr":10000,"reported_methane_tco2e":108633,"reported_avg_kg_hr":443,"operator":"YARRABEE COAL COMPANY PTY. LTD.","cer_name":"Yarrabee Coal Mine (Open Cut)","reporting_period":"2024-07-01..2025-06-30","detections_in_period":1,"peak_in_period_kg_hr":9000}},{"type":"Feature","geometry":{"type":"Point","coordinates":[148.2343810000001,-22.04121599934298]},"properties":{"id":"ga:mine0:850","layer":"coal_mines","name":"Poitrel","subtype":"coal mine","status":"operating mine","country":"AU","state":"QLD","source":"Geoscience Australia (Australian Operating Mines)","source_url":"https://services.ga.gov.au/gis/rest/services/AustralianOperatingMines/MapServer","license":"CC BY 4.0","watch_status":"emitting","detections":5,"emit_overpasses":28,"last_detection":"2025-10-23","max_rate_kg_hr":1741,"reported_methane_tco2e":117100,"reported_avg_kg_hr":477,"operator":"STANMORE RESOURCES LIMITED","cer_name":"Poitrel Mine","reporting_period":"2024-07-01..2025-06-30","detections_in_period":3,"peak_in_period_kg_hr":782}},{"type":"Feature","geometry":{"type":"Point","coordinates":[116.30851500000004,-33.40519999913238]},"properties":{"id":"ga:mine0:853","layer":"coal_mines","name":"Premier","subtype":"coal mine","status":"operating mine","country":"AU","state":"WA","source":"Geoscience Australia (Australian Operating Mines)","source_url":"https://services.ga.gov.au/gis/rest/services/AustralianOperatingMines/MapServer","license":"CC BY 4.0","watch_status":"watched, no plume","detections":0,"emit_overpasses":24,"reported_methane_tco2e":150,"reported_avg_kg_hr":1,"operator":"Premier Coal Pty Ltd","cer_name":"Premier Coal Mine (Open Cut)","reporting_period":"2024-07-01..2025-06-30","detections_in_period":0}},{"type":"Feature","geometry":{"type":"Point","coordinates":[150.99700000000007,-32.43999999914531]},"properties":{"id":"ga:mine0:862","layer":"coal_mines","name":"Ravensworth","subtype":"coal mine","status":"operating mine","country":"AU","state":"NSW","source":"Geoscience Australia (Australian Operating Mines)","source_url":"https://services.ga.gov.au/gis/rest/services/AustralianOperatingMines/MapServer","license":"CC BY 4.0","watch_status":"emitting","detections":3,"emit_overpasses":20,"last_detection":"2026-06-06","max_rate_kg_hr":693}},{"type":"Feature","geometry":{"type":"Point","coordinates":[151.11530000000005,-32.41359999914571]},"properties":{"id":"ga:mine0:863","layer":"coal_mines","name":"Ravensworth East","subtype":"coal mine","status":"operating mine","country":"AU","state":"NSW","source":"Geoscience Australia (Australian Operating Mines)","source_url":"https://services.ga.gov.au/gis/rest/services/AustralianOperatingMines/MapServer","license":"CC BY 4.0","watch_status":"emitting","detections":13,"emit_overpasses":21,"last_detection":"2026-06-06","max_rate_kg_hr":2762,"reported_methane_tco2e":90003,"reported_avg_kg_hr":367,"operator":"RAVENSWORTH OPERATIONS PTY LIMITED","cer_name":"Ravensworth Operations","reporting_period":"2024-07-01..2025-06-30","detections_in_period":1,"peak_in_period_kg_hr":446}},{"type":"Feature","geometry":{"type":"Point","coordinates":[151.12998200000004,-32.526839999144094]},"properties":{"id":"ga:mine0:873","layer":"coal_mines","name":"Rix's Creek","subtype":"coal mine","status":"operating mine","country":"AU","state":"NSW","source":"Geoscience Australia (Australian Operating Mines)","source_url":"https://services.ga.gov.au/gis/rest/services/AustralianOperatingMines/MapServer","license":"CC BY 4.0","watch_status":"watched, no plume","detections":0,"emit_overpasses":22}},{"type":"Feature","geometry":{"type":"Point","coordinates":[151.13498100000004,-32.46883899914491]},"properties":{"id":"ga:mine0:874","layer":"coal_mines","name":"Rix's Creek North","subtype":"coal mine","status":"operating mine","country":"AU","state":"NSW","source":"Geoscience Australia (Australian Operating Mines)","source_url":"https://services.ga.gov.au/gis/rest/services/AustralianOperatingMines/MapServer","license":"CC BY 4.0","watch_status":"emitting","detections":1,"emit_overpasses":20,"last_detection":"2025-07-20","max_rate_kg_hr":17000}},{"type":"Feature","geometry":{"type":"Point","coordinates":[148.41494350000005,-24.489599999287517]},"properties":{"id":"ga:mine0:878","layer":"coal_mines","name":"Rolleston","subtype":"coal mine","status":"operating mine","country":"AU","state":"QLD","source":"Geoscience Australia (Australian Operating Mines)","source_url":"https://services.ga.gov.au/gis/rest/services/AustralianOperatingMines/MapServer","license":"CC BY 4.0","watch_status":"watched, no plume","detections":0,"emit_overpasses":32,"reported_methane_tco2e":275,"reported_avg_kg_hr":1,"operator":"ROLLESTON COAL HOLDINGS PTY LIMITED","cer_name":"Rolleston Coal Mine","reporting_period":"2024-07-01..2025-06-30","detections_in_period":0}},{"type":"Feature","geometry":{"type":"Point","coordinates":[150.88940000000002,-34.35949999912052]},"properties":{"id":"ga:mine0:886","layer":"coal_mines","name":"Russell Vale","subtype":"coal mine","status":"operating mine","country":"AU","state":"NSW","source":"Geoscience Australia (Australian Operating Mines)","source_url":"https://services.ga.gov.au/gis/rest/services/AustralianOperatingMines/MapServer","license":"CC BY 4.0","watch_status":"watched, no plume","detections":0,"emit_overpasses":18,"reported_methane_tco2e":151497,"reported_avg_kg_hr":618,"operator":"WOLLONGONG RESOURCES PTY. LTD.","cer_name":"Russell Vale Colliery","reporting_period":"2024-07-01..2025-06-30","detections_in_period":0}},{"type":"Feature","geometry":{"type":"Point","coordinates":[148.29105100000004,-22.369378999335268]},"properties":{"id":"ga:mine0:891","layer":"coal_mines","name":"Saraji","subtype":"coal mine","status":"operating mine","country":"AU","state":"QLD","source":"Geoscience Australia (Australian Operating Mines)","source_url":"https://services.ga.gov.au/gis/rest/services/AustralianOperatingMines/MapServer","license":"CC BY 4.0","watch_status":"watched, no plume","detections":0,"emit_overpasses":28,"reported_methane_tco2e":47026,"reported_avg_kg_hr":192,"operator":"BM Alliance Coal Operations Pty Limited","cer_name":"Saraji Mine","reporting_period":"2024-07-01..2025-06-30","detections_in_period":0}},{"type":"Feature","geometry":{"type":"Point","coordinates":[147.86,-20.619999999377363]},"properties":{"id":"ga:mine0:901","layer":"coal_mines","name":"Sonoma","subtype":"coal mine","status":"operating mine","country":"AU","state":"QLD","source":"Geoscience Australia (Australian Operating Mines)","source_url":"https://services.ga.gov.au/gis/rest/services/AustralianOperatingMines/MapServer","license":"CC BY 4.0","watch_status":"watched, no plume","detections":0,"emit_overpasses":25}},{"type":"Feature","geometry":{"type":"Point","coordinates":[148.44271300000003,-21.77094199934937]},"properties":{"id":"ga:mine0:908","layer":"coal_mines","name":"South Walker Creek","subtype":"coal mine","status":"operating mine","country":"AU","state":"QLD","source":"Geoscience Australia (Australian Operating Mines)","source_url":"https://services.ga.gov.au/gis/rest/services/AustralianOperatingMines/MapServer","license":"CC BY 4.0","watch_status":"emitting","detections":6,"emit_overpasses":31,"last_detection":"2025-07-29","max_rate_kg_hr":54000,"reported_methane_tco2e":251654,"reported_avg_kg_hr":1026,"operator":"STANMORE RESOURCES LIMITED","cer_name":"South Walker Creek","reporting_period":"2024-07-01..2025-06-30","detections_in_period":2,"peak_in_period_kg_hr":21000}},{"type":"Feature","geometry":{"type":"Point","coordinates":[150.10660000000007,-33.40349999913237]},"properties":{"id":"ga:mine0:912","layer":"coal_mines","name":"Springvale","subtype":"coal mine","status":"operating mine","country":"AU","state":"NSW","source":"Geoscience Australia (Australian Operating Mines)","source_url":"https://services.ga.gov.au/gis/rest/services/AustralianOperatingMines/MapServer","license":"CC BY 4.0","watch_status":"watched, no plume","detections":0,"emit_overpasses":29}},{"type":"Feature","geometry":{"type":"Point","coordinates":[151.97359700000004,-32.11765999914986]},"properties":{"id":"ga:mine0:917","layer":"coal_mines","name":"Stratford Duralie","subtype":"coal mine","status":"operating mine","country":"AU","state":"NSW","source":"Geoscience Australia (Australian Operating Mines)","source_url":"https://services.ga.gov.au/gis/rest/services/AustralianOperatingMines/MapServer","license":"CC BY 4.0","watch_status":"watched, no plume","detections":0,"emit_overpasses":21}},{"type":"Feature","geometry":{"type":"Point","coordinates":[150.57950000000005,-34.250799999121824]},"properties":{"id":"ga:mine0:922","layer":"coal_mines","name":"Tahmoor","subtype":"coal mine","status":"operating mine","country":"AU","state":"NSW","source":"Geoscience Australia (Australian Operating Mines)","source_url":"https://services.ga.gov.au/gis/rest/services/AustralianOperatingMines/MapServer","license":"CC BY 4.0","watch_status":"emitting","detections":25,"emit_overpasses":29,"last_detection":"2026-03-15","max_rate_kg_hr":7009,"reported_methane_tco2e":607813,"reported_avg_kg_hr":2478,"operator":"TAHMOOR COAL PTY LTD","cer_name":"TAHMOOR COAL MINE","reporting_period":"2024-07-01..2025-06-30","detections_in_period":8,"peak_in_period_kg_hr":2865}},{"type":"Feature","geometry":{"type":"Point","coordinates":[150.1690000000001,-30.6383999991721]},"properties":{"id":"ga:mine0:927","layer":"coal_mines","name":"Tarrawonga","subtype":"coal mine","status":"operating mine","country":"AU","state":"NSW","source":"Geoscience Australia (Australian Operating Mines)","source_url":"https://services.ga.gov.au/gis/rest/services/AustralianOperatingMines/MapServer","license":"CC BY 4.0","watch_status":"watched, no plume","detections":0,"emit_overpasses":15}},{"type":"Feature","geometry":{"type":"Point","coordinates":[149.74998300000004,-32.24686299914804]},"properties":{"id":"ga:mine0:940","layer":"coal_mines","name":"Ulan","subtype":"coal mine","status":"operating mine","country":"AU","state":"NSW","source":"Geoscience Australia (Australian Operating Mines)","source_url":"https://services.ga.gov.au/gis/rest/services/AustralianOperatingMines/MapServer","license":"CC BY 4.0","watch_status":"watched, no plume","detections":0,"emit_overpasses":32}},{"type":"Feature","geometry":{"type":"Point","coordinates":[151.00885100000005,-32.558421999143675]},"properties":{"id":"ga:mine0:944","layer":"coal_mines","name":"United-Wambo","subtype":"coal mine","status":"operating mine","country":"AU","state":"NSW","source":"Geoscience Australia (Australian Operating Mines)","source_url":"https://services.ga.gov.au/gis/rest/services/AustralianOperatingMines/MapServer","license":"CC BY 4.0","watch_status":"emitting","detections":18,"emit_overpasses":24,"last_detection":"2026-03-15","max_rate_kg_hr":3701,"reported_methane_tco2e":292707,"reported_avg_kg_hr":1193,"operator":"UNITED COLLIERIES PTY LTD","cer_name":"United Coal Mine","reporting_period":"2024-07-01..2025-06-30","detections_in_period":8,"peak_in_period_kg_hr":2781}},{"type":"Feature","geometry":{"type":"Point","coordinates":[150.1916000000001,-30.778399999169935]},"properties":{"id":"ga:mine0:946","layer":"coal_mines","name":"Vickery","subtype":"coal mine","status":"operating mine","country":"AU","state":"NSW","source":"Geoscience Australia (Australian Operating Mines)","source_url":"https://services.ga.gov.au/gis/rest/services/AustralianOperatingMines/MapServer","license":"CC BY 4.0","watch_status":"watched, no plume","detections":0,"emit_overpasses":16}},{"type":"Feature","geometry":{"type":"Point","coordinates":[148.1880000000001,-22.28699999933721]},"properties":{"id":"ga:mine0:949","layer":"coal_mines","name":"Vulcan","subtype":"coal mine","status":"operating mine","country":"AU","state":"QLD","source":"Geoscience Australia (Australian Operating Mines)","source_url":"https://services.ga.gov.au/gis/rest/services/AustralianOperatingMines/MapServer","license":"CC BY 4.0","watch_status":"watched, no plume","detections":0,"emit_overpasses":29}},{"type":"Feature","geometry":{"type":"Point","coordinates":[150.96080000000006,-32.5659999991436]},"properties":{"id":"ga:mine0:951","layer":"coal_mines","name":"Wambo","subtype":"coal mine","status":"operating mine","country":"AU","state":"NSW","source":"Geoscience Australia (Australian Operating Mines)","source_url":"https://services.ga.gov.au/gis/rest/services/AustralianOperatingMines/MapServer","license":"CC BY 4.0","watch_status":"emitting","detections":2,"emit_overpasses":22,"last_detection":"2024-08-08","max_rate_kg_hr":80742,"reported_methane_tco2e":117353,"reported_avg_kg_hr":478,"operator":"WAMBO COAL PTY LIMITED","cer_name":"Wambo Coal Mine","reporting_period":"2024-07-01..2025-06-30","detections_in_period":1,"peak_in_period_kg_hr":27700}},{"type":"Feature","geometry":{"type":"Point","coordinates":[151.0512000000001,-32.61269999914295]},"properties":{"id":"ga:mine0:952","layer":"coal_mines","name":"Warkworth","subtype":"coal mine","status":"operating mine","country":"AU","state":"NSW","source":"Geoscience Australia (Australian Operating Mines)","source_url":"https://services.ga.gov.au/gis/rest/services/AustralianOperatingMines/MapServer","license":"CC BY 4.0","watch_status":"emitting","detections":17,"emit_overpasses":21,"last_detection":"2026-07-21","max_rate_kg_hr":50000,"reported_methane_tco2e":704713,"reported_avg_kg_hr":2873,"operator":"Warkworth Mining Ltd","cer_name":"Warkworth Mine","reporting_period":"2024-07-01..2025-06-30","detections_in_period":7,"peak_in_period_kg_hr":35000}},{"type":"Feature","geometry":{"type":"Point","coordinates":[146.56400000000008,-38.234699999082565]},"properties":{"id":"ga:mine0:959","layer":"coal_mines","name":"Loy Yang","subtype":"coal mine","status":"operating mine","country":"AU","state":"VIC","source":"Geoscience Australia (Australian Operating Mines)","source_url":"https://services.ga.gov.au/gis/rest/services/AustralianOperatingMines/MapServer","license":"CC BY 4.0","watch_status":"watched, no plume","detections":0,"emit_overpasses":28}},{"type":"Feature","geometry":{"type":"Point","coordinates":[144.4401610000001,-37.70428899908676]},"properties":{"id":"ga:mine0:962","layer":"coal_mines","name":"Maddingley","subtype":"coal mine","status":"operating mine","country":"AU","state":"VIC","source":"Geoscience Australia (Australian Operating Mines)","source_url":"https://services.ga.gov.au/gis/rest/services/AustralianOperatingMines/MapServer","license":"CC BY 4.0","watch_status":"watched, no plume","detections":0,"emit_overpasses":31}},{"type":"Feature","geometry":{"type":"Point","coordinates":[151.46220000000005,-33.11769999913613]},"properties":{"id":"ga:mine0:966","layer":"coal_mines","name":"Mandalong","subtype":"coal mine","status":"operating mine","country":"AU","state":"NSW","source":"Geoscience Australia (Australian Operating Mines)","source_url":"https://services.ga.gov.au/gis/rest/services/AustralianOperatingMines/MapServer","license":"CC BY 4.0","watch_status":"emitting","detections":39,"emit_overpasses":32,"last_detection":"2026-06-13","max_rate_kg_hr":64000,"reported_methane_tco2e":608693,"reported_avg_kg_hr":2482,"operator":"CENTENNIAL MANDALONG PTY LIMITED","cer_name":"Mandalong Mine","reporting_period":"2024-07-01..2025-06-30","detections_in_period":17,"peak_in_period_kg_hr":8371}},{"type":"Feature","geometry":{"type":"Point","coordinates":[150.6699870000001,-32.296843999147356]},"properties":{"id":"ga:mine0:967","layer":"coal_mines","name":"Mangoola","subtype":"coal mine","status":"operating mine","country":"AU","state":"NSW","source":"Geoscience Australia (Australian Operating Mines)","source_url":"https://services.ga.gov.au/gis/rest/services/AustralianOperatingMines/MapServer","license":"CC BY 4.0","watch_status":"watched, no plume","detections":0,"emit_overpasses":19,"reported_methane_tco2e":6935,"reported_avg_kg_hr":28,"operator":"MANGOOLA COAL OPERATIONS PTY LIMITED","cer_name":"Mangoola","reporting_period":"2024-07-01..2025-06-30","detections_in_period":0}},{"type":"Feature","geometry":{"type":"Point","coordinates":[150.1319000000001,-30.564299999173283]},"properties":{"id":"ga:mine0:976","layer":"coal_mines","name":"Maules Creek","subtype":"coal mine","status":"operating mine","country":"AU","state":"NSW","source":"Geoscience Australia (Australian Operating Mines)","source_url":"https://services.ga.gov.au/gis/rest/services/AustralianOperatingMines/MapServer","license":"CC BY 4.0","watch_status":"watched, no plume","detections":0,"emit_overpasses":13,"reported_methane_tco2e":861,"reported_avg_kg_hr":4,"operator":"MAULES CREEK COAL PTY LTD","cer_name":"Maules Creek Open Cut Mine","reporting_period":"2024-07-01..2025-06-30","detections_in_period":0}},{"type":"Feature","geometry":{"type":"Point","coordinates":[150.92740000000003,-32.341399999146724]},"properties":{"id":"ga:mine0:977","layer":"coal_mines","name":"Maxwell","subtype":"coal mine","status":"operating mine","country":"AU","state":"NSW","source":"Geoscience Australia (Australian Operating Mines)","source_url":"https://services.ga.gov.au/gis/rest/services/AustralianOperatingMines/MapServer","license":"CC BY 4.0","watch_status":"watched, no plume","detections":0,"emit_overpasses":21}},{"type":"Feature","geometry":{"type":"Point","coordinates":[151.9115230000001,-26.81354299923976]},"properties":{"id":"ga:mine0:980","layer":"coal_mines","name":"Meandu","subtype":"coal mine","status":"operating mine","country":"AU","state":"QLD","source":"Geoscience Australia (Australian Operating Mines)","source_url":"https://services.ga.gov.au/gis/rest/services/AustralianOperatingMines/MapServer","license":"CC BY 4.0","watch_status":"watched, no plume","detections":0,"emit_overpasses":18}},{"type":"Feature","geometry":{"type":"Point","coordinates":[150.9924000000001,-34.18769999912256]},"properties":{"id":"ga:mine0:983","layer":"coal_mines","name":"Metropolitan","subtype":"coal mine","status":"operating mine","country":"AU","state":"NSW","source":"Geoscience Australia (Australian Operating Mines)","source_url":"https://services.ga.gov.au/gis/rest/services/AustralianOperatingMines/MapServer","license":"CC BY 4.0","watch_status":"emitting","detections":11,"emit_overpasses":21,"last_detection":"2026-06-22","max_rate_kg_hr":2125,"reported_methane_tco2e":609792,"reported_avg_kg_hr":2486,"operator":"METROPOLITAN COLLIERIES PTY. LTD.","cer_name":"Metropolitan Colliery","reporting_period":"2024-07-01..2025-06-30","detections_in_period":1,"peak_in_period_kg_hr":1180}},{"type":"Feature","geometry":{"type":"Point","coordinates":[148.6502260000001,-22.844899999324195]},"properties":{"id":"ga:mine0:984","layer":"coal_mines","name":"Middlemount","subtype":"coal mine","status":"operating mine","country":"AU","state":"QLD","source":"Geoscience Australia (Australian Operating Mines)","source_url":"https://services.ga.gov.au/gis/rest/services/AustralianOperatingMines/MapServer","license":"CC BY 4.0","watch_status":"emitting","detections":2,"emit_overpasses":25,"last_detection":"2024-12-15","max_rate_kg_hr":9000,"reported_methane_tco2e":122909,"reported_avg_kg_hr":501,"operator":"Middlemount Coal Pty Ltd","cer_name":"Middlemount Coal Mine","reporting_period":"2024-07-01..2025-06-30","detections_in_period":1}},{"type":"Feature","geometry":{"type":"Point","coordinates":[149.79100000000005,-32.305099999147245]},"properties":{"id":"ga:mine0:991","layer":"coal_mines","name":"Moolarben","subtype":"coal mine","status":"operating mine","country":"AU","state":"NSW","source":"Geoscience Australia (Australian Operating Mines)","source_url":"https://services.ga.gov.au/gis/rest/services/AustralianOperatingMines/MapServer","license":"CC BY 4.0","watch_status":"watched, no plume","detections":0,"emit_overpasses":32,"reported_methane_tco2e":19037,"reported_avg_kg_hr":78,"operator":"MOOLARBEN COAL OPERATIONS PTY LTD","cer_name":"Moolarben Coal Mine (Open Cut & Underground)","reporting_period":"2024-07-01..2025-06-30","detections_in_period":0}},{"type":"Feature","geometry":{"type":"Point","coordinates":[148.36780480000004,-21.973499999344558]},"properties":{"id":"ga:mine0:994","layer":"coal_mines","name":"Moorvale","subtype":"coal mine","status":"operating mine","country":"AU","state":"QLD","source":"Geoscience Australia (Australian Operating Mines)","source_url":"https://services.ga.gov.au/gis/rest/services/AustralianOperatingMines/MapServer","license":"CC BY 4.0","watch_status":"emitting","detections":1,"emit_overpasses":28,"last_detection":"2024-06-19","max_rate_kg_hr":31890,"reported_methane_tco2e":69355,"reported_avg_kg_hr":283,"operator":"PEABODY ENERGY AUSTRALIA PCI (C&M MANAGEMENT) PTY LTD","cer_name":"Moorvale Coal Mine","reporting_period":"2024-07-01..2025-06-30","detections_in_period":0}},{"type":"Feature","geometry":{"type":"Point","coordinates":[147.95674200000008,-21.871330999346995]},"properties":{"id":"ga:mine0:995","layer":"coal_mines","name":"Moranbah North","subtype":"coal mine","status":"operating mine","country":"AU","state":"QLD","source":"Geoscience Australia (Australian Operating Mines)","source_url":"https://services.ga.gov.au/gis/rest/services/AustralianOperatingMines/MapServer","license":"CC BY 4.0","watch_status":"emitting","detections":5,"emit_overpasses":27,"last_detection":"2025-07-14","max_rate_kg_hr":20000,"reported_methane_tco2e":1255106,"reported_avg_kg_hr":5117,"operator":"ANGLO COAL (MORANBAH NORTH MANAGEMENT) PTY LIMITED","cer_name":"Moranbah North Mine","reporting_period":"2024-07-01..2025-06-30","detections_in_period":3,"peak_in_period_kg_hr":19000}},{"type":"Feature","geometry":{"type":"Point","coordinates":[150.85990000000004,-32.343199999146684]},"properties":{"id":"ga:mine0:997","layer":"coal_mines","name":"Mount Arthur","subtype":"coal mine","status":"operating mine","country":"AU","state":"NSW","source":"Geoscience Australia (Australian Operating Mines)","source_url":"https://services.ga.gov.au/gis/rest/services/AustralianOperatingMines/MapServer","license":"CC BY 4.0","watch_status":"watched, no plume","detections":0,"emit_overpasses":19}},{"type":"Feature","geometry":{"type":"Point","coordinates":[151.09998100000007,-32.38683999914606]},"properties":{"id":"ga:mine0:1014","layer":"coal_mines","name":"Mount Owen","subtype":"coal mine","status":"operating mine","country":"AU","state":"NSW","source":"Geoscience Australia (Australian Operating Mines)","source_url":"https://services.ga.gov.au/gis/rest/services/AustralianOperatingMines/MapServer","license":"CC BY 4.0","watch_status":"watched, no plume","detections":0,"emit_overpasses":21}},{"type":"Feature","geometry":{"type":"Point","coordinates":[150.85090000000002,-32.24649999914806]},"properties":{"id":"ga:mine0:1015","layer":"coal_mines","name":"Mount Pleasant","subtype":"coal mine","status":"operating mine","country":"AU","state":"NSW","source":"Geoscience Australia (Australian Operating Mines)","source_url":"https://services.ga.gov.au/gis/rest/services/AustralianOperatingMines/MapServer","license":"CC BY 4.0","watch_status":"watched, no plume","detections":0,"emit_overpasses":17,"reported_methane_tco2e":73018,"reported_avg_kg_hr":298,"operator":"MACH Energy Australia Pty Ltd","cer_name":"Mount Pleasant Operations","reporting_period":"2024-07-01..2025-06-30","detections_in_period":0}},{"type":"Feature","geometry":{"type":"Point","coordinates":[151.06190000000004,-32.64629999914245]},"properties":{"id":"ga:mine0:1017","layer":"coal_mines","name":"Mount Thorley","subtype":"coal mine","status":"operating mine","country":"AU","state":"NSW","source":"Geoscience Australia (Australian Operating Mines)","source_url":"https://services.ga.gov.au/gis/rest/services/AustralianOperatingMines/MapServer","license":"CC BY 4.0","watch_status":"emitting","detections":5,"emit_overpasses":22,"last_detection":"2026-02-06","max_rate_kg_hr":25000}},{"type":"Feature","geometry":{"type":"Point","coordinates":[151.56740000000002,-33.06349999913686]},"properties":{"id":"ga:mine0:1032","layer":"coal_mines","name":"Myuna","subtype":"coal mine","status":"operating mine","country":"AU","state":"NSW","source":"Geoscience Australia (Australian Operating Mines)","source_url":"https://services.ga.gov.au/gis/rest/services/AustralianOperatingMines/MapServer","license":"CC BY 4.0","watch_status":"emitting","detections":13,"emit_overpasses":35,"last_detection":"2026-06-13","max_rate_kg_hr":2121,"reported_methane_tco2e":168056,"reported_avg_kg_hr":685,"operator":"CENTENNIAL MYUNA PTY LIMITED","cer_name":"Myuna Colliery","reporting_period":"2024-07-01..2025-06-30","detections_in_period":4,"peak_in_period_kg_hr":2121}},{"type":"Feature","geometry":{"type":"Point","coordinates":[149.89490000000012,-30.516899999174058]},"properties":{"id":"ga:mine0:1035","layer":"coal_mines","name":"Narrabri","subtype":"coal mine","status":"operating mine","country":"AU","state":"NSW","source":"Geoscience Australia (Australian Operating Mines)","source_url":"https://services.ga.gov.au/gis/rest/services/AustralianOperatingMines/MapServer","license":"CC BY 4.0","watch_status":"emitting","detections":9,"emit_overpasses":15,"last_detection":"2026-05-15","max_rate_kg_hr":1503,"reported_methane_tco2e":343843,"reported_avg_kg_hr":1402,"operator":"Narrabri Coal Operations Pty Ltd","cer_name":"Narrabri Underground Mine","reporting_period":"2024-07-01..2025-06-30","detections_in_period":4,"peak_in_period_kg_hr":1503}},{"type":"Feature","geometry":{"type":"Point","coordinates":[151.70093200000008,-27.273999999230842]},"properties":{"id":"ga:mine0:1038","layer":"coal_mines","name":"New Acland","subtype":"coal mine","status":"operating mine","country":"AU","state":"QLD","source":"Geoscience Australia (Australian Operating Mines)","source_url":"https://services.ga.gov.au/gis/rest/services/AustralianOperatingMines/MapServer","license":"CC BY 4.0","watch_status":"watched, no plume","detections":0,"emit_overpasses":20}},{"type":"Feature","geometry":{"type":"Point","coordinates":[148.4884472000001,-23.068599999319083]},"properties":{"id":"ga:mine0:1052","layer":"coal_mines","name":"Oaky Creek","subtype":"coal mine","status":"operating mine","country":"AU","state":"QLD","source":"Geoscience Australia (Australian Operating Mines)","source_url":"https://services.ga.gov.au/gis/rest/services/AustralianOperatingMines/MapServer","license":"CC BY 4.0","watch_status":"emitting","detections":9,"emit_overpasses":20,"last_detection":"2025-06-11","max_rate_kg_hr":20000,"reported_methane_tco2e":602179,"reported_avg_kg_hr":2455,"operator":"OAKY CREEK HOLDINGS PTY LIMITED","cer_name":"Oaky Creek Coal Complex","reporting_period":"2024-07-01..2025-06-30","detections_in_period":7,"peak_in_period_kg_hr":20000}},{"type":"Feature","geometry":{"type":"Point","coordinates":[148.36900000000003,-22.209099999339024]},"properties":{"id":"ga:mine0:1054","layer":"coal_mines","name":"Olive Downs","subtype":"coal mine","status":"operating mine","country":"AU","state":"QLD","source":"Geoscience Australia (Australian Operating Mines)","source_url":"https://services.ga.gov.au/gis/rest/services/AustralianOperatingMines/MapServer","license":"CC BY 4.0","watch_status":"emitting","detections":1,"emit_overpasses":33,"last_detection":"2025-10-23","max_rate_kg_hr":26000,"reported_methane_tco2e":192444,"reported_avg_kg_hr":785,"operator":"PEMBROKE RESOURCES NOMINEE PTY LTD","cer_name":"Olive Downs Complex","reporting_period":"2024-07-01..2025-06-30","detections_in_period":0}},{"type":"Feature","geometry":{"type":"Point","coordinates":[150.19901900000002,-33.349156999133065]},"properties":{"id":"ga:mine2:518","layer":"coal_mines","name":"Angus Place","subtype":"coal mine","status":"care and maintenance","country":"AU","state":"NSW","source":"Geoscience Australia (Australian Operating Mines)","source_url":"https://services.ga.gov.au/gis/rest/services/AustralianOperatingMines/MapServer","license":"CC BY 4.0","watch_status":"watched, no plume","detections":0,"emit_overpasses":26}},{"type":"Feature","geometry":{"type":"Point","coordinates":[151.62112700000012,-32.818418999140114]},"properties":{"id":"ga:mine2:527","layer":"coal_mines","name":"Abel","subtype":"coal mine","status":"care and maintenance","country":"AU","state":"NSW","source":"Geoscience Australia (Australian Operating Mines)","source_url":"https://services.ga.gov.au/gis/rest/services/AustralianOperatingMines/MapServer","license":"CC BY 4.0","watch_status":"watched, no plume","detections":0,"emit_overpasses":32}},{"type":"Feature","geometry":{"type":"Point","coordinates":[148.15240000000006,-21.807599999348547]},"properties":{"id":"ga:mine2:544","layer":"coal_mines","name":"Broadmeadow East","subtype":"coal mine","status":"care and maintenance","country":"AU","state":"QLD","source":"Geoscience Australia (Australian Operating Mines)","source_url":"https://services.ga.gov.au/gis/rest/services/AustralianOperatingMines/MapServer","license":"CC BY 4.0","watch_status":"watched, no plume","detections":0,"emit_overpasses":23}},{"type":"Feature","geometry":{"type":"Point","coordinates":[148.89969220000012,-23.715699999304515]},"properties":{"id":"ga:mine2:600","layer":"coal_mines","name":"Cook","subtype":"coal mine","status":"care and maintenance","country":"AU","state":"QLD","source":"Geoscience Australia (Australian Operating Mines)","source_url":"https://services.ga.gov.au/gis/rest/services/AustralianOperatingMines/MapServer","license":"CC BY 4.0","watch_status":"watched, no plume","detections":0,"emit_overpasses":21,"reported_methane_tco2e":136083,"reported_avg_kg_hr":555,"operator":"Constellation Mining Pty Ltd","cer_name":"Cook Colliery","reporting_period":"2024-07-01..2025-06-30","detections_in_period":0}},{"type":"Feature","geometry":{"type":"Point","coordinates":[147.99272800000006,-21.87316799934696]},"properties":{"id":"ga:mine2:618","layer":"coal_mines","name":"Grosvenor","subtype":"coal mine","status":"care and maintenance","country":"AU","state":"QLD","source":"Geoscience Australia (Australian Operating Mines)","source_url":"https://services.ga.gov.au/gis/rest/services/AustralianOperatingMines/MapServer","license":"CC BY 4.0","watch_status":"emitting","detections":57,"emit_overpasses":29,"last_detection":"2026-07-12","max_rate_kg_hr":10000,"reported_methane_tco2e":5805,"reported_avg_kg_hr":24,"operator":"ANGLO COAL (MORANBAH NORTH MANAGEMENT) PTY LIMITED","cer_name":"Grosvenor Mine","reporting_period":"2024-07-01..2025-06-30","detections_in_period":18,"peak_in_period_kg_hr":10000}},{"type":"Feature","geometry":{"type":"Point","coordinates":[150.01616300000012,-33.26928799913413]},"properties":{"id":"ga:mine2:696","layer":"coal_mines","name":"Cullen Valley","subtype":"coal mine","status":"care and maintenance","country":"AU","state":"NSW","source":"Geoscience Australia (Australian Operating Mines)","source_url":"https://services.ga.gov.au/gis/rest/services/AustralianOperatingMines/MapServer","license":"CC BY 4.0","watch_status":"watched, no plume","detections":0,"emit_overpasses":29}},{"type":"Feature","geometry":{"type":"Point","coordinates":[150.85860000000002,-32.19369999914881]},"properties":{"id":"ga:mine2:703","layer":"coal_mines","name":"Dartbrook","subtype":"coal mine","status":"care and maintenance","country":"AU","state":"NSW","source":"Geoscience Australia (Australian Operating Mines)","source_url":"https://services.ga.gov.au/gis/rest/services/AustralianOperatingMines/MapServer","license":"CC BY 4.0","watch_status":"watched, no plume","detections":0,"emit_overpasses":19}},{"type":"Feature","geometry":{"type":"Point","coordinates":[149.06387500000005,-23.520512999308856]},"properties":{"id":"ga:mine2:787","layer":"coal_mines","name":"Bluff","subtype":"coal mine","status":"care and maintenance","country":"AU","state":"QLD","source":"Geoscience Australia (Australian Operating Mines)","source_url":"https://services.ga.gov.au/gis/rest/services/AustralianOperatingMines/MapServer","license":"CC BY 4.0","watch_status":"watched, no plume","detections":0,"emit_overpasses":25}},{"type":"Feature","geometry":{"type":"Point","coordinates":[150.73566400000004,-34.47492099911912]},"properties":{"id":"ga:mine2:831","layer":"coal_mines","name":"Wongawilli","subtype":"coal mine","status":"care and maintenance","country":"AU","state":"NSW","source":"Geoscience Australia (Australian Operating Mines)","source_url":"https://services.ga.gov.au/gis/rest/services/AustralianOperatingMines/MapServer","license":"CC BY 4.0","watch_status":"watched, no plume","detections":0,"emit_overpasses":21}},{"type":"Feature","geometry":{"type":"Point","coordinates":[150.06500000000005,-33.296999999133774]},"properties":{"id":"ga:mine2:847","layer":"coal_mines","name":"Pine Dale","subtype":"coal mine","status":"care and maintenance","country":"AU","state":"NSW","source":"Geoscience Australia (Australian Operating Mines)","source_url":"https://services.ga.gov.au/gis/rest/services/AustralianOperatingMines/MapServer","license":"CC BY 4.0","watch_status":"watched, no plume","detections":0,"emit_overpasses":28}},{"type":"Feature","geometry":{"type":"Point","coordinates":[150.99990000000003,-32.39159999914603]},"properties":{"id":"ga:mine2:954","layer":"coal_mines","name":"Liddell","subtype":"coal mine","status":"care and maintenance","country":"AU","state":"NSW","source":"Geoscience Australia (Australian Operating Mines)","source_url":"https://services.ga.gov.au/gis/rest/services/AustralianOperatingMines/MapServer","license":"CC BY 4.0","watch_status":"watched, no plume","detections":0,"emit_overpasses":19}},{"type":"Feature","geometry":{"type":"Point","coordinates":[151.5325110000001,-33.16421799913548]},"properties":{"id":"ga:mine2:969","layer":"coal_mines","name":"Mannering","subtype":"coal mine","status":"care and maintenance","country":"AU","state":"NSW","source":"Geoscience Australia (Australian Operating Mines)","source_url":"https://services.ga.gov.au/gis/rest/services/AustralianOperatingMines/MapServer","license":"CC BY 4.0","watch_status":"watched, no plume","detections":0,"emit_overpasses":36}},{"type":"Feature","geometry":{"type":"Point","coordinates":[148.21300000000008,-22.02499999934337]},"properties":{"id":"ga:mine2:985","layer":"coal_mines","name":"Millennium","subtype":"coal mine","status":"care and maintenance","country":"AU","state":"QLD","source":"Geoscience Australia (Australian Operating Mines)","source_url":"https://services.ga.gov.au/gis/rest/services/AustralianOperatingMines/MapServer","license":"CC BY 4.0","watch_status":"watched, no plume","detections":0,"emit_overpasses":31}},{"type":"Feature","geometry":{"type":"Point","coordinates":[147.90100000000007,-21.254399999361837]},"properties":{"id":"ga:mine2:1039","layer":"coal_mines","name":"Newlands","subtype":"coal mine","status":"care and maintenance","country":"AU","state":"QLD","source":"Geoscience Australia (Australian Operating Mines)","source_url":"https://services.ga.gov.au/gis/rest/services/AustralianOperatingMines/MapServer","license":"CC BY 4.0","watch_status":"watched, no plume","detections":0,"emit_overpasses":22,"reported_methane_tco2e":40831,"reported_avg_kg_hr":166,"operator":"NC COAL COMPANY PTY LIMITED","cer_name":"Newlands Coal Complex including Newlands Northern UG","reporting_period":"2024-07-01..2025-06-30","detections_in_period":0}},{"type":"Feature","geometry":{"type":"Point","coordinates":[151.57689000000005,-32.975813999138005]},"properties":{"id":"ga:mine2:1042","layer":"coal_mines","name":"Newstan","subtype":"coal mine","status":"care and maintenance","country":"AU","state":"NSW","source":"Geoscience Australia (Australian Operating Mines)","source_url":"https://services.ga.gov.au/gis/rest/services/AustralianOperatingMines/MapServer","license":"CC BY 4.0","watch_status":"watched, no plume","detections":0,"emit_overpasses":33}}]}