{"type":"FeatureCollection","features":[{"type":"Feature","geometry":{"coordinates":[150.792711,-34.210868]},"properties":{"id":"oe:APPIN","layer":"gas_plants","name":"Appin","subtype":"waste coal mine gas","status":"operating","country":"AU","state":"NSW","source":"Open Electricity","source_url":"https://openelectricity.org.au/","license":"CC BY-NC 4.0","fuel_techs":"gas_wcmg","capacity_mw":55.0,"network":"NEM"}},{"type":"Feature","geometry":{"coordinates":[151.543540042872,-33.2087809607995]},"properties":{"id":"oe:COLONGRA","layer":"gas_plants","name":"Colongra","subtype":"gas power station","status":"operating","country":"AU","state":"NSW","source":"Open Electricity","source_url":"https://openelectricity.org.au/","license":"CC BY-NC 4.0","fuel_techs":"gas_ocgt","capacity_mw":724.0,"network":"NEM"}},{"type":"Feature","geometry":{"coordinates":[151.04214199999998,-33.824397]},"properties":{"id":"oe:PMATTAEP","layer":"gas_plants","name":"Earthpower","subtype":"gas power station","status":"retired","country":"AU","state":"NSW","source":"Open Electricity","source_url":"https://openelectricity.org.au/","license":"CC BY-NC 4.0","fuel_techs":"gas_recip","capacity_mw":4.0,"network":"NEM"}},{"type":"Feature","geometry":{"coordinates":[151.130432,-32.464343]},"properties":{"id":"oe:GLENNCRK","layer":"gas_plants","name":"Glennies Creek","subtype":"waste coal mine gas","status":"operating","country":"AU","state":"NSW","source":"Open Electricity","source_url":"https://openelectricity.org.au/","license":"CC BY-NC 4.0","fuel_techs":"gas_wcmg","capacity_mw":12.0,"network":"NEM"}},{"type":"Feature","geometry":{"coordinates":[150.6164029846568,-34.85486811643706]},"properties":{"id":"oe:SHOAL","layer":"gas_plants","name":"Shoalhaven Starches","subtype":"gas power station","status":"operating","country":"AU","state":"NSW","source":"Open Electricity","source_url":"https://openelectricity.org.au/","license":"CC BY-NC 4.0","fuel_techs":"gas_ocgt","capacity_mw":60.0,"network":"NEM"}},{"type":"Feature","geometry":{"coordinates":[150.950050828532,-33.8500226284367]},"properties":{"id":"oe:SITHE","layer":"gas_plants","name":"Smithfield","subtype":"gas power station","status":"operating","country":"AU","state":"NSW","source":"Open Electricity","source_url":"https://openelectricity.org.au/","license":"CC BY-NC 4.0","fuel_techs":"gas_ccgt","capacity_mw":39.0,"network":"NEM"}},{"type":"Feature","geometry":{"coordinates":[150.577718,-34.249117]},"properties":{"id":"oe:TAHMOOR","layer":"gas_plants","name":"Tahmoor","subtype":"waste coal mine gas","status":"operating","country":"AU","state":"NSW","source":"Open Electricity","source_url":"https://openelectricity.org.au/","license":"CC BY-NC 4.0","fuel_techs":"gas_wcmg","capacity_mw":7.0,"network":"NEM"}},{"type":"Feature","geometry":{"coordinates":[150.808566045493,-34.5230894452804]},"properties":{"id":"oe:TALLAWAR","layer":"gas_plants","name":"Tallawarra","subtype":"gas power station","status":"operating","country":"AU","state":"NSW","source":"Open Electricity","source_url":"https://openelectricity.org.au/","license":"CC BY-NC 4.0","fuel_techs":"gas_ccgt","capacity_mw":440.0,"network":"NEM"}},{"type":"Feature","geometry":{"coordinates":[150.808566045493,-34.5230894452804]},"properties":{"id":"oe:TALWB","layer":"gas_plants","name":"Tallawarra B","subtype":"gas power station","status":"operating","country":"AU","state":"NSW","source":"Open Electricity","source_url":"https://openelectricity.org.au/","license":"CC BY-NC 4.0","fuel_techs":"gas_ocgt","capacity_mw":320.0,"network":"NEM"}},{"type":"Feature","geometry":{"coordinates":[151.612042,-32.945557]},"properties":{"id":"oe:TERALBA","layer":"gas_plants","name":"Teralba","subtype":"waste coal mine gas","status":"operating","country":"AU","state":"NSW","source":"Open Electricity","source_url":"https://openelectricity.org.au/","license":"CC BY-NC 4.0","fuel_techs":"gas_wcmg","capacity_mw":3.0,"network":"NEM"}},{"type":"Feature","geometry":{"coordinates":[150.71801200000002,-34.219460999999995]},"properties":{"id":"oe:TOWER","layer":"gas_plants","name":"Tower","subtype":"waste coal mine gas","status":"operating","country":"AU","state":"NSW","source":"Open Electricity","source_url":"https://openelectricity.org.au/","license":"CC BY-NC 4.0","fuel_techs":"gas_wcmg","capacity_mw":41.0,"network":"NEM"}},{"type":"Feature","geometry":{"coordinates":[147.21565992714,-35.180225647620205]},"properties":{"id":"oe:URANQ","layer":"gas_plants","name":"Uranquinty","subtype":"gas power station","status":"operating","country":"AU","state":"NSW","source":"Open Electricity","source_url":"https://openelectricity.org.au/","license":"CC BY-NC 4.0","fuel_techs":"gas_ocgt","capacity_mw":664.0,"network":"NEM"}},{"type":"Feature","geometry":{"coordinates":[149.65276799999998,-30.314444]},"properties":{"id":"oe:WILGAPK","layer":"gas_plants","name":"Wilga Park","subtype":"gas power station","status":"operating","country":"AU","state":"NSW","source":"Open Electricity","source_url":"https://openelectricity.org.au/","license":"CC BY-NC 4.0","fuel_techs":"gas_recip","capacity_mw":10.0,"network":"NEM"}},{"type":"Feature","geometry":{"coordinates":[149.65276799999998,-30.314444]},"properties":{"id":"oe:WILGAPKB","layer":"gas_plants","name":"Wilga Park B","subtype":"gas power station","status":"operating","country":"AU","state":"NSW","source":"Open Electricity","source_url":"https://openelectricity.org.au/","license":"CC BY-NC 4.0","fuel_techs":"gas_recip","capacity_mw":12.0,"network":"NEM"}},{"type":"Feature","geometry":{"coordinates":[145.31485121010098,-23.5521705751292]},"properties":{"id":"oe:BARCALDN","layer":"gas_plants","name":"Barcaldine","subtype":"gas power station","status":"operating","country":"AU","state":"QLD","source":"Open Electricity","source_url":"https://openelectricity.org.au/","license":"CC BY-NC 4.0","fuel_techs":"gas_ccgt","capacity_mw":37.0,"network":"NEM"}},{"type":"Feature","geometry":{"coordinates":[150.907647496929,-27.111668775911003]},"properties":{"id":"oe:BRAEMARA","layer":"gas_plants","name":"Braemar","subtype":"gas power station","status":"operating","country":"AU","state":"QLD","source":"Open Electricity","source_url":"https://openelectricity.org.au/","license":"CC BY-NC 4.0","fuel_techs":"gas_ocgt","capacity_mw":504.0,"network":"NEM"}},{"type":"Feature","geometry":{"coordinates":[150.90765329885,-27.1098726737727]},"properties":{"id":"oe:B2PS","layer":"gas_plants","name":"Braemar 2","subtype":"gas power station","status":"operating","country":"AU","state":"QLD","source":"Open Electricity","source_url":"https://openelectricity.org.au/","license":"CC BY-NC 4.0","fuel_techs":"gas_ocgt","capacity_mw":519.0,"network":"NEM"}},{"type":"Feature","geometry":{"coordinates":[150.268581153696,-26.6666729324806]},"properties":{"id":"oe:CPSA","layer":"gas_plants","name":"Condamine A","subtype":"gas power station","status":"operating","country":"AU","state":"QLD","source":"Open Electricity","source_url":"https://openelectricity.org.au/","license":"CC BY-NC 4.0","fuel_techs":"gas_ccgt","capacity_mw":143.0,"network":"NEM"}},{"type":"Feature","geometry":{"coordinates":[150.94252770215,-27.0862943709476]},"properties":{"id":"oe:DAANDINE","layer":"gas_plants","name":"Daandine","subtype":"gas power station","status":"operating","country":"AU","state":"QLD","source":"Open Electricity","source_url":"https://openelectricity.org.au/","license":"CC BY-NC 4.0","fuel_techs":"gas_recip","capacity_mw":33.0,"network":"NEM"}},{"type":"Feature","geometry":{"coordinates":[150.89539128796198,-27.1168512752019]},"properties":{"id":"oe:DDPS1","layer":"gas_plants","name":"Darling Downs","subtype":"gas power station","status":"operating","country":"AU","state":"QLD","source":"Open Electricity","source_url":"https://openelectricity.org.au/","license":"CC BY-NC 4.0","fuel_techs":"gas_ccgt","capacity_mw":121.0,"network":"NEM"}},{"type":"Feature","geometry":{"coordinates":[148.549097,-22.928526]},"properties":{"id":"oe:GERMCRK","layer":"gas_plants","name":"German Creek","subtype":"waste coal mine gas","status":"operating","country":"AU","state":"QLD","source":"Open Electricity","source_url":"https://openelectricity.org.au/","license":"CC BY-NC 4.0","fuel_techs":"gas_wcmg","capacity_mw":45.0,"network":"NEM"}},{"type":"Feature","geometry":{"coordinates":[151.926883,-27.573590000000003]},"properties":{"id":"oe:KRCCOGEN","layer":"gas_plants","name":"KRC Cogen","subtype":"gas power station","status":"retired","country":"AU","state":"QLD","source":"Open Electricity","source_url":"https://openelectricity.org.au/","license":"CC BY-NC 4.0","fuel_techs":"gas_ocgt","capacity_mw":5.0,"network":"NEM"}},{"type":"Feature","geometry":{"coordinates":[148.006004,-21.962469]},"properties":{"id":"oe:MORANBAH","layer":"gas_plants","name":"Moranbah","subtype":"gas power station","status":"operating","country":"AU","state":"QLD","source":"Open Electricity","source_url":"https://openelectricity.org.au/","license":"CC BY-NC 4.0","fuel_techs":"gas_recip","capacity_mw":13.0,"network":"NEM"}},{"type":"Feature","geometry":{"coordinates":[148.004809,-21.978481]},"properties":{"id":"oe:MBAHNTH","layer":"gas_plants","name":"Moranbah North","subtype":"waste coal mine gas","status":"operating","country":"AU","state":"QLD","source":"Open Electricity","source_url":"https://openelectricity.org.au/","license":"CC BY-NC 4.0","fuel_techs":"gas_wcmg","capacity_mw":63.0,"network":"NEM"}},{"type":"Feature","geometry":{"coordinates":[151.678887225743,-27.4182072591559]},"properties":{"id":"oe:OAKEY","layer":"gas_plants","name":"Oakey","subtype":"gas power station","status":"operating","country":"AU","state":"QLD","source":"Open Electricity","source_url":"https://openelectricity.org.au/","license":"CC BY-NC 4.0","fuel_techs":"gas_ocgt","capacity_mw":282.0,"network":"NEM"}},{"type":"Feature","geometry":{"coordinates":[148.484462,-23.048717]},"properties":{"id":"oe:OCPS","layer":"gas_plants","name":"Oaky Creek","subtype":"gas power station","status":"operating","country":"AU","state":"QLD","source":"Open Electricity","source_url":"https://openelectricity.org.au/","license":"CC BY-NC 4.0","fuel_techs":"gas_recip","capacity_mw":20.0,"network":"NEM"}},{"type":"Feature","geometry":{"coordinates":[148.484462,-23.048717]},"properties":{"id":"oe:OAKY2","layer":"gas_plants","name":"Oaky Creek 2","subtype":"waste coal mine gas","status":"operating","country":"AU","state":"QLD","source":"Open Electricity","source_url":"https://openelectricity.org.au/","license":"CC BY-NC 4.0","fuel_techs":"gas_wcmg","capacity_mw":15.0,"network":"NEM"}},{"type":"Feature","geometry":{"coordinates":[148.839485013731,-26.576788038755602]},"properties":{"id":"oe:ROMA","layer":"gas_plants","name":"Roma","subtype":"gas power station","status":"operating","country":"AU","state":"QLD","source":"Open Electricity","source_url":"https://openelectricity.org.au/","license":"CC BY-NC 4.0","fuel_techs":"gas_ocgt","capacity_mw":80.0,"network":"NEM"}},{"type":"Feature","geometry":{"coordinates":[152.818643586756,-27.6552859093397]},"properties":{"id":"oe:SWAN_B","layer":"gas_plants","name":"Swanbank B","subtype":"gas power station","status":"retired","country":"AU","state":"QLD","source":"Open Electricity","source_url":"https://openelectricity.org.au/","license":"CC BY-NC 4.0","fuel_techs":"gas_ocgt","network":"NEM"}},{"type":"Feature","geometry":{"coordinates":[152.818643586756,-27.6552859093397]},"properties":{"id":"oe:SWAN_E","layer":"gas_plants","name":"Swanbank E","subtype":"gas power station","status":"operating","country":"AU","state":"QLD","source":"Open Electricity","source_url":"https://openelectricity.org.au/","license":"CC BY-NC 4.0","fuel_techs":"gas_ccgt","capacity_mw":385.0,"network":"NEM"}},{"type":"Feature","geometry":{"coordinates":[146.61826474008998,-19.2003738513919]},"properties":{"id":"oe:YABULU","layer":"gas_plants","name":"Townsville","subtype":"gas power station","status":"operating","country":"AU","state":"QLD","source":"Open Electricity","source_url":"https://openelectricity.org.au/","license":"CC BY-NC 4.0","fuel_techs":"gas_ccgt","capacity_mw":242.0,"network":"NEM"}},{"type":"Feature","geometry":{"coordinates":[151.149691648905,-23.8302003068757]},"properties":{"id":"oe:YARWUN","layer":"gas_plants","name":"Yarwun","subtype":"gas power station","status":"operating","country":"AU","state":"QLD","source":"Open Electricity","source_url":"https://openelectricity.org.au/","license":"CC BY-NC 4.0","fuel_techs":"gas_ccgt","capacity_mw":154.0,"network":"NEM"}},{"type":"Feature","geometry":{"coordinates":[138.524,-34.804]},"properties":{"id":"oe:BARKIPS","layer":"gas_plants","name":"Barker Inlet","subtype":"gas power station","status":"operating","country":"AU","state":"SA","source":"Open Electricity","source_url":"https://openelectricity.org.au/","license":"CC BY-NC 4.0","fuel_techs":"gas_recip","capacity_mw":211.0,"network":"NEM"}},{"type":"Feature","geometry":{"coordinates":[138.582297039723,-34.8472931778913]},"properties":{"id":"oe:DRYCGT","layer":"gas_plants","name":"Dry Creek","subtype":"gas power station","status":"operating","country":"AU","state":"SA","source":"Open Electricity","source_url":"https://openelectricity.org.au/","license":"CC BY-NC 4.0","fuel_techs":"gas_ocgt","capacity_mw":156.0,"network":"NEM"}},{"type":"Feature","geometry":{"coordinates":[138.752632826228,-33.3493102447996]},"properties":{"id":"oe:AGLHAL","layer":"gas_plants","name":"Hallett","subtype":"gas power station","status":"operating","country":"AU","state":"SA","source":"Open Electricity","source_url":"https://openelectricity.org.au/","license":"CC BY-NC 4.0","fuel_techs":"gas_ocgt","capacity_mw":217.0,"network":"NEM"}},{"type":"Feature","geometry":{"coordinates":[140.782699220365,-37.456183170651]},"properties":{"id":"oe:LADBROKE","layer":"gas_plants","name":"Ladbroke Grove","subtype":"gas power station","status":"operating","country":"AU","state":"SA","source":"Open Electricity","source_url":"https://openelectricity.org.au/","license":"CC BY-NC 4.0","fuel_techs":"gas_ocgt","capacity_mw":80.0,"network":"NEM"}},{"type":"Feature","geometry":{"coordinates":[138.73879717507901,-33.9031486136929]},"properties":{"id":"oe:MINTARO","layer":"gas_plants","name":"Mintaro","subtype":"gas power station","status":"operating","country":"AU","state":"SA","source":"Open Electricity","source_url":"https://openelectricity.org.au/","license":"CC BY-NC 4.0","fuel_techs":"gas_ocgt","capacity_mw":115.0,"network":"NEM"}},{"type":"Feature","geometry":{"coordinates":[138.50809861051098,-34.797699815377]},"properties":{"id":"oe:OSBORNE","layer":"gas_plants","name":"Osborne","subtype":"gas power station","status":"operating","country":"AU","state":"SA","source":"Open Electricity","source_url":"https://openelectricity.org.au/","license":"CC BY-NC 4.0","fuel_techs":"gas_ccgt","capacity_mw":180.0,"network":"NEM"}},{"type":"Feature","geometry":{"coordinates":[138.5053993318,-34.764365355128604]},"properties":{"id":"oe:NPPPPS","layer":"gas_plants","name":"Pelican Point","subtype":"gas power station","status":"operating","country":"AU","state":"SA","source":"Open Electricity","source_url":"https://openelectricity.org.au/","license":"CC BY-NC 4.0","fuel_techs":"gas_ccgt","capacity_mw":478.0,"network":"NEM"}},{"type":"Feature","geometry":{"coordinates":[138.522454543776,-34.7790736853879]},"properties":{"id":"oe:QUARANTN","layer":"gas_plants","name":"Quarantine","subtype":"gas power station","status":"operating","country":"AU","state":"SA","source":"Open Electricity","source_url":"https://openelectricity.org.au/","license":"CC BY-NC 4.0","fuel_techs":"gas_ocgt","capacity_mw":229.0,"network":"NEM"}},{"type":"Feature","geometry":{"coordinates":[138.50819008412628,-34.764519992803145]},"properties":{"id":"oe:SNAPPER","layer":"gas_plants","name":"Snapper Point","subtype":"gas power station","status":"operating","country":"AU","state":"SA","source":"Open Electricity","source_url":"https://openelectricity.org.au/","license":"CC BY-NC 4.0","fuel_techs":"gas_ocgt","capacity_mw":154.0,"network":"NEM"}},{"type":"Feature","geometry":{"coordinates":[138.522228698972,-34.8045591391219]},"properties":{"id":"oe:TORRIS","layer":"gas_plants","name":"Torrens Island","subtype":"gas power station","status":"operating","country":"AU","state":"SA","source":"Open Electricity","source_url":"https://openelectricity.org.au/","license":"CC BY-NC 4.0","fuel_techs":"gas_steam","capacity_mw":1280.0,"network":"NEM"}},{"type":"Feature","geometry":{"coordinates":[146.9025,-41.141944]},"properties":{"id":"oe:BELLBAY","layer":"gas_plants","name":"Bell Bay","subtype":"gas power station","status":"retired","country":"AU","state":"TAS","source":"Open Electricity","source_url":"https://openelectricity.org.au/","license":"CC BY-NC 4.0","fuel_techs":"gas_steam","capacity_mw":240.0,"network":"NEM"}},{"type":"Feature","geometry":{"coordinates":[146.905521847101,-41.139323562966396]},"properties":{"id":"oe:BBP31","layer":"gas_plants","name":"Bell Bay Three","subtype":"gas power station","status":"operating","country":"AU","state":"TAS","source":"Open Electricity","source_url":"https://openelectricity.org.au/","license":"CC BY-NC 4.0","fuel_techs":"gas_ocgt","capacity_mw":163.0,"network":"NEM"}},{"type":"Feature","geometry":{"coordinates":[146.906184786351,-41.1392679526502]},"properties":{"id":"oe:TVCCPS","layer":"gas_plants","name":"Tamar Valley","subtype":"gas power station","status":"operating","country":"AU","state":"TAS","source":"Open Electricity","source_url":"https://openelectricity.org.au/","license":"CC BY-NC 4.0","fuel_techs":"gas_ccgt","capacity_mw":208.6,"network":"NEM"}},{"type":"Feature","geometry":{"coordinates":[147.56372527022,-37.842230501524796]},"properties":{"id":"oe:DEIBDL","layer":"gas_plants","name":"Bairnsdale","subtype":"gas power station","status":"operating","country":"AU","state":"VIC","source":"Open Electricity","source_url":"https://openelectricity.org.au/","license":"CC BY-NC 4.0","fuel_techs":"gas_ocgt","capacity_mw":92.0,"network":"NEM"}},{"type":"Feature","geometry":{"coordinates":[143.847247,-37.558774]},"properties":{"id":"oe:BBASEHOS","layer":"gas_plants","name":"Ballarat Hospital","subtype":"gas power station","status":"operating","country":"AU","state":"VIC","source":"Open Electricity","source_url":"https://openelectricity.org.au/","license":"CC BY-NC 4.0","fuel_techs":"gas_recip","capacity_mw":1.0,"network":"NEM"}},{"type":"Feature","geometry":{"coordinates":[146.427046429655,-38.2751112170371]},"properties":{"id":"oe:JEERA","layer":"gas_plants","name":"Jeeralang A","subtype":"gas power station","status":"operating","country":"AU","state":"VIC","source":"Open Electricity","source_url":"https://openelectricity.org.au/","license":"CC BY-NC 4.0","fuel_techs":"gas_ocgt","capacity_mw":204.0,"network":"NEM"}},{"type":"Feature","geometry":{"coordinates":[146.424826524902,-38.2738445583474]},"properties":{"id":"oe:JEERB","layer":"gas_plants","name":"Jeeralang B","subtype":"gas power station","status":"operating","country":"AU","state":"VIC","source":"Open Electricity","source_url":"https://openelectricity.org.au/","license":"CC BY-NC 4.0","fuel_techs":"gas_ocgt","capacity_mw":228.0,"network":"NEM"}},{"type":"Feature","geometry":{"coordinates":[144.788006154048,-37.841693295236794]},"properties":{"id":"oe:LNGS","layer":"gas_plants","name":"Laverton North","subtype":"gas power station","status":"operating","country":"AU","state":"VIC","source":"Open Electricity","source_url":"https://openelectricity.org.au/","license":"CC BY-NC 4.0","fuel_techs":"gas_ocgt","capacity_mw":312.0,"network":"NEM"}},{"type":"Feature","geometry":{"coordinates":[147.1631,-38.223244]},"properties":{"id":"oe:LONGFORD","layer":"gas_plants","name":"Longford","subtype":"gas power station","status":"operating","country":"AU","state":"VIC","source":"Open Electricity","source_url":"https://openelectricity.org.au/","license":"CC BY-NC 4.0","fuel_techs":"gas_ocgt","capacity_mw":44.0,"network":"NEM"}},{"type":"Feature","geometry":{"coordinates":[142.666330491351,-38.0626278266324]},"properties":{"id":"oe:MORTLK","layer":"gas_plants","name":"Mortlake","subtype":"gas power station","status":"operating","country":"AU","state":"VIC","source":"Open Electricity","source_url":"https://openelectricity.org.au/","license":"CC BY-NC 4.0","fuel_techs":"gas_ocgt","capacity_mw":566.0,"network":"NEM"}},{"type":"Feature","geometry":{"coordinates":[144.89547862132,-37.8413742466]},"properties":{"id":"oe:NEWPORT","layer":"gas_plants","name":"Newport","subtype":"gas power station","status":"operating","country":"AU","state":"VIC","source":"Open Electricity","source_url":"https://openelectricity.org.au/","license":"CC BY-NC 4.0","fuel_techs":"gas_steam","capacity_mw":500.0,"network":"NEM"}},{"type":"Feature","geometry":{"coordinates":[144.95309828615,-37.6309486600574]},"properties":{"id":"oe:AGLSOM","layer":"gas_plants","name":"Somerton","subtype":"gas power station","status":"operating","country":"AU","state":"VIC","source":"Open Electricity","source_url":"https://openelectricity.org.au/","license":"CC BY-NC 4.0","fuel_techs":"gas_ocgt","capacity_mw":170.0,"network":"NEM"}},{"type":"Feature","geometry":{"coordinates":[144.965955,-37.833513]},"properties":{"id":"oe:TGNSS","layer":"gas_plants","name":"Traralgon Network Support","subtype":"gas power station","status":"operating","country":"AU","state":"VIC","source":"Open Electricity","source_url":"https://openelectricity.org.au/","license":"CC BY-NC 4.0","fuel_techs":"gas_recip","capacity_mw":10.0,"network":"NEM"}},{"type":"Feature","geometry":{"coordinates":[146.58890593343202,-38.2526008522186]},"properties":{"id":"oe:VPGS","layer":"gas_plants","name":"Valley Aking","subtype":"gas power station","status":"operating","country":"AU","state":"VIC","source":"Open Electricity","source_url":"https://openelectricity.org.au/","license":"CC BY-NC 4.0","fuel_techs":"gas_ocgt","capacity_mw":300.0,"network":"NEM"}},{"type":"Feature","geometry":{"coordinates":[115.77398799999999,-32.200134000000006]},"properties":{"id":"oe:COCKBURN","layer":"gas_plants","name":"Cockburn","subtype":"gas power station","status":"operating","country":"AU","state":"WA","source":"Open Electricity","source_url":"https://openelectricity.org.au/","license":"CC BY-NC 4.0","fuel_techs":"gas_ccgt","capacity_mw":249.7,"network":"WEM"}},{"type":"Feature","geometry":{"coordinates":[121.67190120000001,-31.1919033]},"properties":{"id":"oe:STHRNCRS","layer":"gas_plants","name":"Kambalda","subtype":"gas power station","status":"operating","country":"AU","state":"WA","source":"Open Electricity","source_url":"https://openelectricity.org.au/","license":"CC BY-NC 4.0","fuel_techs":"gas_ocgt","capacity_mw":42.0,"network":"WEM"}},{"type":"Feature","geometry":{"coordinates":[115.7811324,-33.163566100000004]},"properties":{"id":"oe:KEMERTON","layer":"gas_plants","name":"Kemerton","subtype":"gas power station","status":"operating","country":"AU","state":"WA","source":"Open Electricity","source_url":"https://openelectricity.org.au/","license":"CC BY-NC 4.0","fuel_techs":"gas_ocgt","capacity_mw":309.4,"network":"WEM"}},{"type":"Feature","geometry":{"coordinates":[115.77544499999999,-32.197245]},"properties":{"id":"oe:KWINANA","layer":"gas_plants","name":"Kwinana","subtype":"gas power station","status":"operating","country":"AU","state":"WA","source":"Open Electricity","source_url":"https://openelectricity.org.au/","license":"CC BY-NC 4.0","fuel_techs":"gas_ocgt","capacity_mw":292.1,"network":"WEM"}},{"type":"Feature","geometry":{"coordinates":[115.77441090000002,-32.2290511]},"properties":{"id":"oe:TIWEST_COG1","layer":"gas_plants","name":"Kwinana Cogen","subtype":"gas power station","status":"operating","country":"AU","state":"WA","source":"Open Electricity","source_url":"https://openelectricity.org.au/","license":"CC BY-NC 4.0","fuel_techs":"gas_ocgt","capacity_mw":120.0,"network":"WEM"}},{"type":"Feature","geometry":{"coordinates":[115.778516,-32.223991999999996]},"properties":{"id":"oe:PERTHENERGY_KWINANA","layer":"gas_plants","name":"Kwinana Swift","subtype":"gas power station","status":"operating","country":"AU","state":"WA","source":"Open Electricity","source_url":"https://openelectricity.org.au/","license":"CC BY-NC 4.0","fuel_techs":"gas_ocgt","capacity_mw":116.0,"network":"WEM"}},{"type":"Feature","geometry":{"coordinates":[118.2268664,-31.5426501]},"properties":{"id":"oe:NAMKKN_MERR","layer":"gas_plants","name":"Merredin","subtype":"gas power station","status":"operating","country":"AU","state":"WA","source":"Open Electricity","source_url":"https://openelectricity.org.au/","license":"CC BY-NC 4.0","fuel_techs":"gas_ocgt","capacity_mw":92.6,"network":"WEM"}},{"type":"Feature","geometry":{"coordinates":[115.115999,-28.8878993]},"properties":{"id":"oe:MUNGARRA","layer":"gas_plants","name":"Mungarra","subtype":"gas power station","status":"operating","country":"AU","state":"WA","source":"Open Electricity","source_url":"https://openelectricity.org.au/","license":"CC BY-NC 4.0","fuel_techs":"gas_ocgt","capacity_mw":117.0,"network":"WEM"}},{"type":"Feature","geometry":{"coordinates":[115.7988503,-31.671177500000002]},"properties":{"id":"oe:NEWGEN_NEERABUP","layer":"gas_plants","name":"Neerabup","subtype":"gas power station","status":"operating","country":"AU","state":"WA","source":"Open Electricity","source_url":"https://openelectricity.org.au/","license":"CC BY-NC 4.0","fuel_techs":"gas_ocgt","capacity_mw":342.0,"network":"WEM"}},{"type":"Feature","geometry":{"coordinates":[115.773172,-32.201951]},"properties":{"id":"oe:NEWGEN_KWINANA","layer":"gas_plants","name":"Newgen Kwinana","subtype":"gas power station","status":"operating","country":"AU","state":"WA","source":"Open Electricity","source_url":"https://openelectricity.org.au/","license":"CC BY-NC 4.0","fuel_techs":"gas_ccgt","capacity_mw":335.0,"network":"WEM"}},{"type":"Feature","geometry":{"coordinates":[121.5062638,-30.738009299999998]},"properties":{"id":"oe:PRK_AG","layer":"gas_plants","name":"Parkeston","subtype":"gas power station","status":"operating","country":"AU","state":"WA","source":"Open Electricity","source_url":"https://openelectricity.org.au/","license":"CC BY-NC 4.0","fuel_techs":"gas_ocgt","capacity_mw":110.0,"network":"WEM"}},{"type":"Feature","geometry":{"coordinates":[115.8185124,-31.558544899999998]},"properties":{"id":"oe:PINJAR","layer":"gas_plants","name":"Pinjar","subtype":"gas power station","status":"operating","country":"AU","state":"WA","source":"Open Electricity","source_url":"https://openelectricity.org.au/","license":"CC BY-NC 4.0","fuel_techs":"gas_ocgt","capacity_mw":600.6,"network":"WEM"}},{"type":"Feature","geometry":{"coordinates":[115.94685120000001,-32.6471604]},"properties":{"id":"oe:ALINTA_PNJ","layer":"gas_plants","name":"Pinjara","subtype":"gas power station","status":"operating","country":"AU","state":"WA","source":"Open Electricity","source_url":"https://openelectricity.org.au/","license":"CC BY-NC 4.0","fuel_techs":"gas_ocgt","capacity_mw":286.0,"network":"WEM"}},{"type":"Feature","geometry":{"coordinates":[115.9204307,-32.9043187]},"properties":{"id":"oe:ALCOA_WGP","layer":"gas_plants","name":"Wagerup","subtype":"gas power station","status":"operating","country":"AU","state":"WA","source":"Open Electricity","source_url":"https://openelectricity.org.au/","license":"CC BY-NC 4.0","fuel_techs":"gas_ocgt","capacity_mw":418.0,"network":"WEM"}}]}