{"type":"FeatureCollection","features":[{"type":"Feature","geometry":{"type":"Point","coordinates":[142.82167,-5.92341]},"properties":{"site":"hides","site_name":"Hides Gas Conditioning Plant","scene":"S2C_MSIL2A_20260804T005711_N0512_R002_T54MYU_20260804T033510.SAFE","datetime_utc":"2026-08-04T00:57:11","pixels":28,"area_ha":1.12,"mean_dr":-0.12661,"min_dr":-0.18522,"sigma":0.01832,"strength":6.5,"reference_scenes":6,"mean_d_b11":0.05621,"mean_d_b12":-0.04484,"elongation":1.76,"provider":"Methane Atlas (Sentinel-2 MBMP)","own_detection":true}},{"type":"Feature","geometry":{"type":"Point","coordinates":[142.83003,-5.91398]},"properties":{"site":"hides","site_name":"Hides Gas Conditioning Plant","scene":"S2B_MSIL2A_20260131T005659_N0511_R002_T54MYU_20260131T024609.SAFE","datetime_utc":"2026-01-31T00:56:59","pixels":19,"area_ha":0.76,"mean_dr":-0.16432,"min_dr":-0.21818,"sigma":0.03221,"strength":5.5,"reference_scenes":6,"mean_d_b11":0.09444,"mean_d_b12":-0.02351,"elongation":3.06,"provider":"Methane Atlas (Sentinel-2 MBMP)","own_detection":true}},{"type":"Feature","geometry":{"type":"Point","coordinates":[142.87179,-5.91049]},"properties":{"site":"hides","site_name":"Hides Gas Conditioning Plant","scene":"S2B_MSIL2A_20260131T005659_N0511_R002_T54MYU_20260131T024609.SAFE","datetime_utc":"2026-01-31T00:56:59","pixels":47,"area_ha":1.88,"mean_dr":-0.15709,"min_dr":-0.20336,"sigma":0.03221,"strength":5.3,"reference_scenes":6,"mean_d_b11":0.05075,"mean_d_b12":-0.09482,"elongation":1.68,"provider":"Methane Atlas (Sentinel-2 MBMP)","own_detection":true}},{"type":"Feature","geometry":{"type":"Point","coordinates":[142.90898,-5.85684]},"properties":{"site":"hides","site_name":"Hides Gas Conditioning Plant","scene":"S2B_MSIL2A_20260131T005659_N0511_R002_T54MYU_20260131T024609.SAFE","datetime_utc":"2026-01-31T00:56:59","pixels":19,"area_ha":0.76,"mean_dr":-0.14734,"min_dr":-0.19323,"sigma":0.03221,"strength":5.0,"reference_scenes":7,"mean_d_b11":0.03633,"mean_d_b12":-0.04652,"elongation":1.87,"provider":"Methane Atlas (Sentinel-2 MBMP)","own_detection":true}},{"type":"Feature","geometry":{"type":"Point","coordinates":[142.83057,-5.91087]},"properties":{"site":"hides","site_name":"Hides Gas Conditioning Plant","scene":"S2B_MSIL2A_20260131T005659_N0511_R002_T54MYU_20260131T024609.SAFE","datetime_utc":"2026-01-31T00:56:59","pixels":12,"area_ha":0.48,"mean_dr":-0.13422,"min_dr":-0.16524,"sigma":0.03221,"strength":4.6,"reference_scenes":7,"mean_d_b11":0.05768,"mean_d_b12":-0.046,"elongation":2.21,"provider":"Methane Atlas (Sentinel-2 MBMP)","own_detection":true}}]}